[
  {
    "place_name": "Adan",
    "roll_min": 1,
    "roll_max": 2
  },
  {
    "place_name": "Ahsa",
    "roll_min": 3,
    "roll_max": 4
  },
  {
    "place_name": "Andalus",
    "roll_min": 5,
    "roll_max": 6
  },
  {
    "place_name": "Asmara",
    "roll_min": 7,
    "roll_max": 8
  },
  {
    "place_name": "Asqlan",
    "roll_min": 9,
    "roll_max": 10
  },
  {
    "place_name": "Baqubah",
    "roll_min": 11,
    "roll_max": 12
  },
  {
    "place_name": "Basit",
    "roll_min": 13,
    "roll_max": 14
  },
  {
    "place_name": "Baysan",
    "roll_min": 15,
    "roll_max": 16
  },
  {
    "place_name": "Baytlahm",
    "roll_min": 17,
    "roll_max": 18
  },
  {
    "place_name": "Bursaid",
    "roll_min": 19,
    "roll_max": 20
  },
  {
    "place_name": "Dahilah",
    "roll_min": 21,
    "roll_max": 22
  },
  {
    "place_name": "Darasalam",
    "roll_min": 23,
    "roll_max": 24
  },
  {
    "place_name": "Dawhah",
    "roll_min": 25,
    "roll_max": 26
  },
  {
    "place_name": "Ganin",
    "roll_min": 27,
    "roll_max": 28
  },
  {
    "place_name": "Gebal",
    "roll_min": 29,
    "roll_max": 30
  },
  {
    "place_name": "Gibuti",
    "roll_min": 31,
    "roll_max": 32
  },
  {
    "place_name": "Giddah",
    "roll_min": 33,
    "roll_max": 34
  },
  {
    "place_name": "Harmah",
    "roll_min": 35,
    "roll_max": 36
  },
  {
    "place_name": "Hartum",
    "roll_min": 37,
    "roll_max": 38
  },
  {
    "place_name": "Hibah",
    "roll_min": 39,
    "roll_max": 40
  },
  {
    "place_name": "Hims",
    "roll_min": 41,
    "roll_max": 42
  },
  {
    "place_name": "Hubar",
    "roll_min": 43,
    "roll_max": 44
  },
  {
    "place_name": "Karbala",
    "roll_min": 45,
    "roll_max": 46
  },
  {
    "place_name": "Kut",
    "roll_min": 47,
    "roll_max": 48
  },
  {
    "place_name": "Lacant",
    "roll_min": 49,
    "roll_max": 50
  },
  {
    "place_name": "Magrit",
    "roll_min": 51,
    "roll_max": 52
  },
  {
    "place_name": "Masqat",
    "roll_min": 53,
    "roll_max": 54
  },
  {
    "place_name": "Misr",
    "roll_min": 55,
    "roll_max": 56
  },
  {
    "place_name": "Muruni",
    "roll_min": 57,
    "roll_max": 58
  },
  {
    "place_name": "Qabis",
    "roll_min": 59,
    "roll_max": 60
  },
  {
    "place_name": "Qina",
    "roll_min": 61,
    "roll_max": 62
  },
  {
    "place_name": "Rabat",
    "roll_min": 63,
    "roll_max": 64
  },
  {
    "place_name": "Ramlah",
    "roll_min": 65,
    "roll_max": 66
  },
  {
    "place_name": "Riyadh",
    "roll_min": 67,
    "roll_max": 68
  },
  {
    "place_name": "Sabtah",
    "roll_min": 69,
    "roll_max": 70
  },
  {
    "place_name": "Salalah",
    "roll_min": 71,
    "roll_max": 72
  },
  {
    "place_name": "Sana",
    "roll_min": 73,
    "roll_max": 74
  },
  {
    "place_name": "Sinqit",
    "roll_min": 75,
    "roll_max": 76
  },
  {
    "place_name": "Suqutrah",
    "roll_min": 77,
    "roll_max": 78
  },
  {
    "place_name": "Sur",
    "roll_min": 79,
    "roll_max": 80
  },
  {
    "place_name": "Tabuk",
    "roll_min": 81,
    "roll_max": 82
  },
  {
    "place_name": "Tangah",
    "roll_min": 83,
    "roll_max": 84
  },
  {
    "place_name": "Tarifah",
    "roll_min": 85,
    "roll_max": 86
  },
  {
    "place_name": "Tarrakunah",
    "roll_min": 87,
    "roll_max": 88
  },
  {
    "place_name": "Tisit",
    "roll_min": 89,
    "roll_max": 90
  },
  {
    "place_name": "Uman",
    "roll_min": 91,
    "roll_max": 92
  },
  {
    "place_name": "Urdunn",
    "roll_min": 93,
    "roll_max": 94
  },
  {
    "place_name": "Wasqah",
    "roll_min": 95,
    "roll_max": 96
  },
  {
    "place_name": "Yaburah",
    "roll_min": 97,
    "roll_max": 98
  },
  {
    "place_name": "Yaman",
    "roll_min": 99,
    "roll_max": 100
  }
]
