[
  {
    "place_name": "Aldington",
    "roll_min": 1,
    "roll_max": 2
  },
  {
    "place_name": "Appleton",
    "roll_min": 3,
    "roll_max": 4
  },
  {
    "place_name": "Ashdon",
    "roll_min": 5,
    "roll_max": 6
  },
  {
    "place_name": "Berwick",
    "roll_min": 7,
    "roll_max": 8
  },
  {
    "place_name": "Bramford",
    "roll_min": 9,
    "roll_max": 10
  },
  {
    "place_name": "Brimstage",
    "roll_min": 11,
    "roll_max": 12
  },
  {
    "place_name": "Carden",
    "roll_min": 13,
    "roll_max": 14
  },
  {
    "place_name": "Churchill",
    "roll_min": 15,
    "roll_max": 16
  },
  {
    "place_name": "Clifton",
    "roll_min": 17,
    "roll_max": 18
  },
  {
    "place_name": "Colby",
    "roll_min": 19,
    "roll_max": 20
  },
  {
    "place_name": "Copford",
    "roll_min": 21,
    "roll_max": 22
  },
  {
    "place_name": "Cromer",
    "roll_min": 23,
    "roll_max": 24
  },
  {
    "place_name": "Davenham",
    "roll_min": 25,
    "roll_max": 26
  },
  {
    "place_name": "Dersingham",
    "roll_min": 27,
    "roll_max": 28
  },
  {
    "place_name": "Doverdale",
    "roll_min": 29,
    "roll_max": 30
  },
  {
    "place_name": "Elsted",
    "roll_min": 31,
    "roll_max": 32
  },
  {
    "place_name": "Ferring",
    "roll_min": 33,
    "roll_max": 34
  },
  {
    "place_name": "Gissing",
    "roll_min": 35,
    "roll_max": 36
  },
  {
    "place_name": "Heydon",
    "roll_min": 37,
    "roll_max": 38
  },
  {
    "place_name": "Holt",
    "roll_min": 39,
    "roll_max": 40
  },
  {
    "place_name": "Hunston",
    "roll_min": 41,
    "roll_max": 42
  },
  {
    "place_name": "Hutton",
    "roll_min": 43,
    "roll_max": 44
  },
  {
    "place_name": "Inkberrow",
    "roll_min": 45,
    "roll_max": 46
  },
  {
    "place_name": "Inworth",
    "roll_min": 47,
    "roll_max": 48
  },
  {
    "place_name": "Isfield",
    "roll_min": 49,
    "roll_max": 50
  },
  {
    "place_name": "Kedington",
    "roll_min": 51,
    "roll_max": 52
  },
  {
    "place_name": "Latchford",
    "roll_min": 53,
    "roll_max": 54
  },
  {
    "place_name": "Leigh",
    "roll_min": 55,
    "roll_max": 56
  },
  {
    "place_name": "Leighton",
    "roll_min": 57,
    "roll_max": 58
  },
  {
    "place_name": "Maresfield",
    "roll_min": 59,
    "roll_max": 60
  },
  {
    "place_name": "Markshall",
    "roll_min": 61,
    "roll_max": 62
  },
  {
    "place_name": "Netherpool",
    "roll_min": 63,
    "roll_max": 64
  },
  {
    "place_name": "Newton",
    "roll_min": 65,
    "roll_max": 66
  },
  {
    "place_name": "Oxton",
    "roll_min": 67,
    "roll_max": 68
  },
  {
    "place_name": "Preston",
    "roll_min": 69,
    "roll_max": 70
  },
  {
    "place_name": "Ridley",
    "roll_min": 71,
    "roll_max": 72
  },
  {
    "place_name": "Rochford",
    "roll_min": 73,
    "roll_max": 74
  },
  {
    "place_name": "Seaford",
    "roll_min": 75,
    "roll_max": 76
  },
  {
    "place_name": "Selsey",
    "roll_min": 77,
    "roll_max": 78
  },
  {
    "place_name": "Stanton",
    "roll_min": 79,
    "roll_max": 80
  },
  {
    "place_name": "Stockham",
    "roll_min": 81,
    "roll_max": 82
  },
  {
    "place_name": "Stoke",
    "roll_min": 83,
    "roll_max": 84
  },
  {
    "place_name": "Sutton",
    "roll_min": 85,
    "roll_max": 86
  },
  {
    "place_name": "Thakeham",
    "roll_min": 87,
    "roll_max": 88
  },
  {
    "place_name": "Thetford",
    "roll_min": 89,
    "roll_max": 90
  },
  {
    "place_name": "Thorndon",
    "roll_min": 91,
    "roll_max": 92
  },
  {
    "place_name": "Ulting",
    "roll_min": 93,
    "roll_max": 94
  },
  {
    "place_name": "Upton",
    "roll_min": 95,
    "roll_max": 96
  },
  {
    "place_name": "Westhorpe",
    "roll_min": 97,
    "roll_max": 98
  },
  {
    "place_name": "Worcester",
    "roll_min": 99,
    "roll_max": 100
  }
]
