[
  {
    "place_name": "Adramyttion",
    "roll_min": 1,
    "roll_max": 2
  },
  {
    "place_name": "Ainos",
    "roll_min": 3,
    "roll_max": 4
  },
  {
    "place_name": "Alikarnassos",
    "roll_min": 5,
    "roll_max": 6
  },
  {
    "place_name": "Avydos",
    "roll_min": 7,
    "roll_max": 8
  },
  {
    "place_name": "Dakia",
    "roll_min": 9,
    "roll_max": 10
  },
  {
    "place_name": "Dardanos",
    "roll_min": 11,
    "roll_max": 12
  },
  {
    "place_name": "Dekapoli",
    "roll_min": 13,
    "roll_max": 14
  },
  {
    "place_name": "Dodoni",
    "roll_min": 15,
    "roll_max": 16
  },
  {
    "place_name": "Efesos",
    "roll_min": 17,
    "roll_max": 18
  },
  {
    "place_name": "Efstratios",
    "roll_min": 19,
    "roll_max": 20
  },
  {
    "place_name": "Elefsina",
    "roll_min": 21,
    "roll_max": 22
  },
  {
    "place_name": "Ellada",
    "roll_min": 23,
    "roll_max": 24
  },
  {
    "place_name": "Epidavros",
    "roll_min": 25,
    "roll_max": 26
  },
  {
    "place_name": "Erymanthos",
    "roll_min": 27,
    "roll_max": 28
  },
  {
    "place_name": "Evripos",
    "roll_min": 29,
    "roll_max": 30
  },
  {
    "place_name": "Gavdos",
    "roll_min": 31,
    "roll_max": 32
  },
  {
    "place_name": "Gytheio",
    "roll_min": 33,
    "roll_max": 34
  },
  {
    "place_name": "Ikaria",
    "roll_min": 35,
    "roll_max": 36
  },
  {
    "place_name": "Ilios",
    "roll_min": 37,
    "roll_max": 38
  },
  {
    "place_name": "Illyria",
    "roll_min": 39,
    "roll_max": 40
  },
  {
    "place_name": "Iraia",
    "roll_min": 41,
    "roll_max": 42
  },
  {
    "place_name": "Irakleio",
    "roll_min": 43,
    "roll_max": 44
  },
  {
    "place_name": "Isminos",
    "roll_min": 45,
    "roll_max": 46
  },
  {
    "place_name": "Ithaki",
    "roll_min": 47,
    "roll_max": 48
  },
  {
    "place_name": "Kadmeia",
    "roll_min": 49,
    "roll_max": 50
  },
  {
    "place_name": "Kallisto",
    "roll_min": 51,
    "roll_max": 52
  },
  {
    "place_name": "Katerini",
    "roll_min": 53,
    "roll_max": 54
  },
  {
    "place_name": "Kithairon",
    "roll_min": 55,
    "roll_max": 56
  },
  {
    "place_name": "Kydonia",
    "roll_min": 57,
    "roll_max": 58
  },
  {
    "place_name": "Lakonia",
    "roll_min": 59,
    "roll_max": 60
  },
  {
    "place_name": "Leros",
    "roll_min": 61,
    "roll_max": 62
  },
  {
    "place_name": "Lesvos",
    "roll_min": 63,
    "roll_max": 64
  },
  {
    "place_name": "Limnos",
    "roll_min": 65,
    "roll_max": 66
  },
  {
    "place_name": "Lykia",
    "roll_min": 67,
    "roll_max": 68
  },
  {
    "place_name": "Megara",
    "roll_min": 69,
    "roll_max": 70
  },
  {
    "place_name": "Messene",
    "roll_min": 71,
    "roll_max": 72
  },
  {
    "place_name": "Milos",
    "roll_min": 73,
    "roll_max": 74
  },
  {
    "place_name": "Nikaia",
    "roll_min": 75,
    "roll_max": 76
  },
  {
    "place_name": "Orontis",
    "roll_min": 77,
    "roll_max": 78
  },
  {
    "place_name": "Parnasos",
    "roll_min": 79,
    "roll_max": 80
  },
  {
    "place_name": "Petro",
    "roll_min": 81,
    "roll_max": 82
  },
  {
    "place_name": "Samos",
    "roll_min": 83,
    "roll_max": 84
  },
  {
    "place_name": "Syros",
    "roll_min": 85,
    "roll_max": 86
  },
  {
    "place_name": "Thapsos",
    "roll_min": 87,
    "roll_max": 88
  },
  {
    "place_name": "Thessalia",
    "roll_min": 89,
    "roll_max": 90
  },
  {
    "place_name": "Thira",
    "roll_min": 91,
    "roll_max": 92
  },
  {
    "place_name": "Thiva",
    "roll_min": 93,
    "roll_max": 94
  },
  {
    "place_name": "Varvara",
    "roll_min": 95,
    "roll_max": 96
  },
  {
    "place_name": "Voiotia",
    "roll_min": 97,
    "roll_max": 98
  },
  {
    "place_name": "Vyvlos",
    "roll_min": 99,
    "roll_max": 100
  }
]
