[
  {
    "place_name": "Ahmedabad",
    "roll_min": 1,
    "roll_max": 2
  },
  {
    "place_name": "Alipurduar",
    "roll_min": 3,
    "roll_max": 4
  },
  {
    "place_name": "Alubari",
    "roll_min": 5,
    "roll_max": 6
  },
  {
    "place_name": "Anjanadri",
    "roll_min": 7,
    "roll_max": 8
  },
  {
    "place_name": "Ankleshwar",
    "roll_min": 9,
    "roll_max": 10
  },
  {
    "place_name": "Balarika",
    "roll_min": 11,
    "roll_max": 12
  },
  {
    "place_name": "Bhanuja",
    "roll_min": 13,
    "roll_max": 14
  },
  {
    "place_name": "Bhilwada",
    "roll_min": 15,
    "roll_max": 16
  },
  {
    "place_name": "Brahmaghosa",
    "roll_min": 17,
    "roll_max": 18
  },
  {
    "place_name": "Bulandshahar",
    "roll_min": 19,
    "roll_max": 20
  },
  {
    "place_name": "Candrama",
    "roll_min": 21,
    "roll_max": 22
  },
  {
    "place_name": "Chalisgaon",
    "roll_min": 23,
    "roll_max": 24
  },
  {
    "place_name": "Chandragiri",
    "roll_min": 25,
    "roll_max": 26
  },
  {
    "place_name": "Charbagh",
    "roll_min": 27,
    "roll_max": 28
  },
  {
    "place_name": "Chayanka",
    "roll_min": 29,
    "roll_max": 30
  },
  {
    "place_name": "Chittorgarh",
    "roll_min": 31,
    "roll_max": 32
  },
  {
    "place_name": "Dayabasti",
    "roll_min": 33,
    "roll_max": 34
  },
  {
    "place_name": "Dikpala",
    "roll_min": 35,
    "roll_max": 36
  },
  {
    "place_name": "Ekanga",
    "roll_min": 37,
    "roll_max": 38
  },
  {
    "place_name": "Gandhidham",
    "roll_min": 39,
    "roll_max": 40
  },
  {
    "place_name": "Gollaprolu",
    "roll_min": 41,
    "roll_max": 42
  },
  {
    "place_name": "Grahisa",
    "roll_min": 43,
    "roll_max": 44
  },
  {
    "place_name": "Guwahati",
    "roll_min": 45,
    "roll_max": 46
  },
  {
    "place_name": "Haridasva",
    "roll_min": 47,
    "roll_max": 48
  },
  {
    "place_name": "Indraprastha",
    "roll_min": 49,
    "roll_max": 50
  },
  {
    "place_name": "Jaisalmer",
    "roll_min": 51,
    "roll_max": 52
  },
  {
    "place_name": "Jharonda",
    "roll_min": 53,
    "roll_max": 54
  },
  {
    "place_name": "Kadambur",
    "roll_min": 55,
    "roll_max": 56
  },
  {
    "place_name": "Kalasipalyam",
    "roll_min": 57,
    "roll_max": 58
  },
  {
    "place_name": "Karnataka",
    "roll_min": 59,
    "roll_max": 60
  },
  {
    "place_name": "Kutchuhery",
    "roll_min": 61,
    "roll_max": 62
  },
  {
    "place_name": "Lalgola",
    "roll_min": 63,
    "roll_max": 64
  },
  {
    "place_name": "Mainaguri",
    "roll_min": 65,
    "roll_max": 66
  },
  {
    "place_name": "Nainital",
    "roll_min": 67,
    "roll_max": 68
  },
  {
    "place_name": "Nandidurg",
    "roll_min": 69,
    "roll_max": 70
  },
  {
    "place_name": "Narayanadri",
    "roll_min": 71,
    "roll_max": 72
  },
  {
    "place_name": "Panipat",
    "roll_min": 73,
    "roll_max": 74
  },
  {
    "place_name": "Panjagutta",
    "roll_min": 75,
    "roll_max": 76
  },
  {
    "place_name": "Pathankot",
    "roll_min": 77,
    "roll_max": 78
  },
  {
    "place_name": "Pathardih",
    "roll_min": 79,
    "roll_max": 80
  },
  {
    "place_name": "Porbandar",
    "roll_min": 81,
    "roll_max": 82
  },
  {
    "place_name": "Rajasthan",
    "roll_min": 83,
    "roll_max": 84
  },
  {
    "place_name": "Renigunta",
    "roll_min": 85,
    "roll_max": 86
  },
  {
    "place_name": "Sewagram",
    "roll_min": 87,
    "roll_max": 88
  },
  {
    "place_name": "Shakurbasti",
    "roll_min": 89,
    "roll_max": 90
  },
  {
    "place_name": "Siliguri",
    "roll_min": 91,
    "roll_max": 92
  },
  {
    "place_name": "Sonepat",
    "roll_min": 93,
    "roll_max": 94
  },
  {
    "place_name": "Teliwara",
    "roll_min": 95,
    "roll_max": 96
  },
  {
    "place_name": "Tinpahar",
    "roll_min": 97,
    "roll_max": 98
  },
  {
    "place_name": "Villivakkam",
    "roll_min": 99,
    "roll_max": 100
  }
]
