[
  {
    "place_name": "Abilia",
    "roll_min": 1,
    "roll_max": 2
  },
  {
    "place_name": "Alsium",
    "roll_min": 3,
    "roll_max": 4
  },
  {
    "place_name": "Aquileia",
    "roll_min": 5,
    "roll_max": 6
  },
  {
    "place_name": "Argentoratum",
    "roll_min": 7,
    "roll_max": 8
  },
  {
    "place_name": "Ascrivium",
    "roll_min": 9,
    "roll_max": 10
  },
  {
    "place_name": "Asculum",
    "roll_min": 11,
    "roll_max": 12
  },
  {
    "place_name": "Attalia",
    "roll_min": 13,
    "roll_max": 14
  },
  {
    "place_name": "Barium",
    "roll_min": 15,
    "roll_max": 16
  },
  {
    "place_name": "Batavorum",
    "roll_min": 17,
    "roll_max": 18
  },
  {
    "place_name": "Belum",
    "roll_min": 19,
    "roll_max": 20
  },
  {
    "place_name": "Bobbium",
    "roll_min": 21,
    "roll_max": 22
  },
  {
    "place_name": "Brigantium",
    "roll_min": 23,
    "roll_max": 24
  },
  {
    "place_name": "Burgodunum",
    "roll_min": 25,
    "roll_max": 26
  },
  {
    "place_name": "Camulodunum",
    "roll_min": 27,
    "roll_max": 28
  },
  {
    "place_name": "Clausentum",
    "roll_min": 29,
    "roll_max": 30
  },
  {
    "place_name": "Corduba",
    "roll_min": 31,
    "roll_max": 32
  },
  {
    "place_name": "Coriovallum",
    "roll_min": 33,
    "roll_max": 34
  },
  {
    "place_name": "Durucobrivis",
    "roll_min": 35,
    "roll_max": 36
  },
  {
    "place_name": "Eboracum",
    "roll_min": 37,
    "roll_max": 38
  },
  {
    "place_name": "Emona",
    "roll_min": 39,
    "roll_max": 40
  },
  {
    "place_name": "Florentia",
    "roll_min": 41,
    "roll_max": 42
  },
  {
    "place_name": "Lactodurum",
    "roll_min": 43,
    "roll_max": 44
  },
  {
    "place_name": "Lentia",
    "roll_min": 45,
    "roll_max": 46
  },
  {
    "place_name": "Lindum",
    "roll_min": 47,
    "roll_max": 48
  },
  {
    "place_name": "Londinium",
    "roll_min": 49,
    "roll_max": 50
  },
  {
    "place_name": "Lucus",
    "roll_min": 51,
    "roll_max": 52
  },
  {
    "place_name": "Lugdunum",
    "roll_min": 53,
    "roll_max": 54
  },
  {
    "place_name": "Mediolanum",
    "roll_min": 55,
    "roll_max": 56
  },
  {
    "place_name": "Novaesium",
    "roll_min": 57,
    "roll_max": 58
  },
  {
    "place_name": "Patavium",
    "roll_min": 59,
    "roll_max": 60
  },
  {
    "place_name": "Pistoria",
    "roll_min": 61,
    "roll_max": 62
  },
  {
    "place_name": "Pompeii",
    "roll_min": 63,
    "roll_max": 64
  },
  {
    "place_name": "Raurica",
    "roll_min": 65,
    "roll_max": 66
  },
  {
    "place_name": "Rigomagus",
    "roll_min": 67,
    "roll_max": 68
  },
  {
    "place_name": "Roma",
    "roll_min": 69,
    "roll_max": 70
  },
  {
    "place_name": "Salernum",
    "roll_min": 71,
    "roll_max": 72
  },
  {
    "place_name": "Salona",
    "roll_min": 73,
    "roll_max": 74
  },
  {
    "place_name": "Segovia",
    "roll_min": 75,
    "roll_max": 76
  },
  {
    "place_name": "Sirmium",
    "roll_min": 77,
    "roll_max": 78
  },
  {
    "place_name": "Spalatum",
    "roll_min": 79,
    "roll_max": 80
  },
  {
    "place_name": "Tarraco",
    "roll_min": 81,
    "roll_max": 82
  },
  {
    "place_name": "Treverorum",
    "roll_min": 83,
    "roll_max": 84
  },
  {
    "place_name": "Verulamium",
    "roll_min": 85,
    "roll_max": 86
  },
  {
    "place_name": "Vesontio",
    "roll_min": 87,
    "roll_max": 88
  },
  {
    "place_name": "Vetera",
    "roll_min": 89,
    "roll_max": 90
  },
  {
    "place_name": "Vindelicorum",
    "roll_min": 91,
    "roll_max": 92
  },
  {
    "place_name": "Vindobona",
    "roll_min": 93,
    "roll_max": 94
  },
  {
    "place_name": "Vinovia",
    "roll_min": 95,
    "roll_max": 96
  },
  {
    "place_name": "Viroconium",
    "roll_min": 97,
    "roll_max": 98
  },
  {
    "place_name": "Volubilis",
    "roll_min": 99,
    "roll_max": 100
  }
]
