[
  {
    "place_name": "Abadan",
    "roll_min": 1,
    "roll_max": 2
  },
  {
    "place_name": "Ador",
    "roll_min": 3,
    "roll_max": 4
  },
  {
    "place_name": "Agatu",
    "roll_min": 5,
    "roll_max": 6
  },
  {
    "place_name": "Akamkpa",
    "roll_min": 7,
    "roll_max": 8
  },
  {
    "place_name": "Akpabuyo",
    "roll_min": 9,
    "roll_max": 10
  },
  {
    "place_name": "Ala",
    "roll_min": 11,
    "roll_max": 12
  },
  {
    "place_name": "Askira",
    "roll_min": 13,
    "roll_max": 14
  },
  {
    "place_name": "Bakassi",
    "roll_min": 15,
    "roll_max": 16
  },
  {
    "place_name": "Bama",
    "roll_min": 17,
    "roll_max": 18
  },
  {
    "place_name": "Bayo",
    "roll_min": 19,
    "roll_max": 20
  },
  {
    "place_name": "Bekwara",
    "roll_min": 21,
    "roll_max": 22
  },
  {
    "place_name": "Biase",
    "roll_min": 23,
    "roll_max": 24
  },
  {
    "place_name": "Boki",
    "roll_min": 25,
    "roll_max": 26
  },
  {
    "place_name": "Buruku",
    "roll_min": 27,
    "roll_max": 28
  },
  {
    "place_name": "Calabar",
    "roll_min": 29,
    "roll_max": 30
  },
  {
    "place_name": "Chibok",
    "roll_min": 31,
    "roll_max": 32
  },
  {
    "place_name": "Damboa",
    "roll_min": 33,
    "roll_max": 34
  },
  {
    "place_name": "Dikwa",
    "roll_min": 35,
    "roll_max": 36
  },
  {
    "place_name": "Etung",
    "roll_min": 37,
    "roll_max": 38
  },
  {
    "place_name": "Gboko",
    "roll_min": 39,
    "roll_max": 40
  },
  {
    "place_name": "Gubio",
    "roll_min": 41,
    "roll_max": 42
  },
  {
    "place_name": "Guzamala",
    "roll_min": 43,
    "roll_max": 44
  },
  {
    "place_name": "Gwoza",
    "roll_min": 45,
    "roll_max": 46
  },
  {
    "place_name": "Hawul",
    "roll_min": 47,
    "roll_max": 48
  },
  {
    "place_name": "Ikom",
    "roll_min": 49,
    "roll_max": 50
  },
  {
    "place_name": "Jere",
    "roll_min": 51,
    "roll_max": 52
  },
  {
    "place_name": "Kalabalge",
    "roll_min": 53,
    "roll_max": 54
  },
  {
    "place_name": "Katsina",
    "roll_min": 55,
    "roll_max": 56
  },
  {
    "place_name": "Knoduga",
    "roll_min": 57,
    "roll_max": 58
  },
  {
    "place_name": "Konshishatse",
    "roll_min": 59,
    "roll_max": 60
  },
  {
    "place_name": "Kukawa",
    "roll_min": 61,
    "roll_max": 62
  },
  {
    "place_name": "Kwande",
    "roll_min": 63,
    "roll_max": 64
  },
  {
    "place_name": "Kwayakusar",
    "roll_min": 65,
    "roll_max": 66
  },
  {
    "place_name": "Logo",
    "roll_min": 67,
    "roll_max": 68
  },
  {
    "place_name": "Mafa",
    "roll_min": 69,
    "roll_max": 70
  },
  {
    "place_name": "Makurdi",
    "roll_min": 71,
    "roll_max": 72
  },
  {
    "place_name": "Nganzai",
    "roll_min": 73,
    "roll_max": 74
  },
  {
    "place_name": "Obanliku",
    "roll_min": 75,
    "roll_max": 76
  },
  {
    "place_name": "Obi",
    "roll_min": 77,
    "roll_max": 78
  },
  {
    "place_name": "Obubra",
    "roll_min": 79,
    "roll_max": 80
  },
  {
    "place_name": "Obudu",
    "roll_min": 81,
    "roll_max": 82
  },
  {
    "place_name": "Odukpani",
    "roll_min": 83,
    "roll_max": 84
  },
  {
    "place_name": "Ogbadibo",
    "roll_min": 85,
    "roll_max": 86
  },
  {
    "place_name": "Ohimini",
    "roll_min": 87,
    "roll_max": 88
  },
  {
    "place_name": "Okpokwu",
    "roll_min": 89,
    "roll_max": 90
  },
  {
    "place_name": "Otukpo",
    "roll_min": 91,
    "roll_max": 92
  },
  {
    "place_name": "Shani",
    "roll_min": 93,
    "roll_max": 94
  },
  {
    "place_name": "Ugep",
    "roll_min": 95,
    "roll_max": 96
  },
  {
    "place_name": "Vandeikya",
    "roll_min": 97,
    "roll_max": 98
  },
  {
    "place_name": "Yala",
    "roll_min": 99,
    "roll_max": 100
  }
]
