[
  {
    "place_name": "Aguascebas",
    "roll_min": 1,
    "roll_max": 2
  },
  {
    "place_name": "Alcazar",
    "roll_min": 3,
    "roll_max": 4
  },
  {
    "place_name": "Barranquete",
    "roll_min": 5,
    "roll_max": 6
  },
  {
    "place_name": "Bravatas",
    "roll_min": 7,
    "roll_max": 8
  },
  {
    "place_name": "Cabezudos",
    "roll_min": 9,
    "roll_max": 10
  },
  {
    "place_name": "Calderon",
    "roll_min": 11,
    "roll_max": 12
  },
  {
    "place_name": "Cantera",
    "roll_min": 13,
    "roll_max": 14
  },
  {
    "place_name": "Castillo",
    "roll_min": 15,
    "roll_max": 16
  },
  {
    "place_name": "Delgadas",
    "roll_min": 17,
    "roll_max": 18
  },
  {
    "place_name": "Donablanca",
    "roll_min": 19,
    "roll_max": 20
  },
  {
    "place_name": "Encinetas",
    "roll_min": 21,
    "roll_max": 22
  },
  {
    "place_name": "Estrella",
    "roll_min": 23,
    "roll_max": 24
  },
  {
    "place_name": "Faustino",
    "roll_min": 25,
    "roll_max": 26
  },
  {
    "place_name": "Fuentebravia",
    "roll_min": 27,
    "roll_max": 28
  },
  {
    "place_name": "Gafarillos",
    "roll_min": 29,
    "roll_max": 30
  },
  {
    "place_name": "Gironda",
    "roll_min": 31,
    "roll_max": 32
  },
  {
    "place_name": "Higueros",
    "roll_min": 33,
    "roll_max": 34
  },
  {
    "place_name": "Huelago",
    "roll_min": 35,
    "roll_max": 36
  },
  {
    "place_name": "Humilladero",
    "roll_min": 37,
    "roll_max": 38
  },
  {
    "place_name": "Illora",
    "roll_min": 39,
    "roll_max": 40
  },
  {
    "place_name": "Isabela",
    "roll_min": 41,
    "roll_max": 42
  },
  {
    "place_name": "Izbor",
    "roll_min": 43,
    "roll_max": 44
  },
  {
    "place_name": "Jandilla",
    "roll_min": 45,
    "roll_max": 46
  },
  {
    "place_name": "Jinetes",
    "roll_min": 47,
    "roll_max": 48
  },
  {
    "place_name": "Limones",
    "roll_min": 49,
    "roll_max": 50
  },
  {
    "place_name": "Loreto",
    "roll_min": 51,
    "roll_max": 52
  },
  {
    "place_name": "Lujar",
    "roll_min": 53,
    "roll_max": 54
  },
  {
    "place_name": "Marbela",
    "roll_min": 55,
    "roll_max": 56
  },
  {
    "place_name": "Matagorda",
    "roll_min": 57,
    "roll_max": 58
  },
  {
    "place_name": "Nacimiento",
    "roll_min": 59,
    "roll_max": 60
  },
  {
    "place_name": "Niguelas",
    "roll_min": 61,
    "roll_max": 62
  },
  {
    "place_name": "Ogijares",
    "roll_min": 63,
    "roll_max": 64
  },
  {
    "place_name": "Ortegicar",
    "roll_min": 65,
    "roll_max": 66
  },
  {
    "place_name": "Pampanico",
    "roll_min": 67,
    "roll_max": 68
  },
  {
    "place_name": "Pelado",
    "roll_min": 69,
    "roll_max": 70
  },
  {
    "place_name": "Quesada",
    "roll_min": 71,
    "roll_max": 72
  },
  {
    "place_name": "Quintera",
    "roll_min": 73,
    "roll_max": 74
  },
  {
    "place_name": "Riguelo",
    "roll_min": 75,
    "roll_max": 76
  },
  {
    "place_name": "Ruescas",
    "roll_min": 77,
    "roll_max": 78
  },
  {
    "place_name": "Salteras",
    "roll_min": 79,
    "roll_max": 80
  },
  {
    "place_name": "Santopitar",
    "roll_min": 81,
    "roll_max": 82
  },
  {
    "place_name": "Taberno",
    "roll_min": 83,
    "roll_max": 84
  },
  {
    "place_name": "Torres",
    "roll_min": 85,
    "roll_max": 86
  },
  {
    "place_name": "Umbrete",
    "roll_min": 87,
    "roll_max": 88
  },
  {
    "place_name": "Valdecazorla",
    "roll_min": 89,
    "roll_max": 90
  },
  {
    "place_name": "Velez",
    "roll_min": 91,
    "roll_max": 92
  },
  {
    "place_name": "Vistahermosa",
    "roll_min": 93,
    "roll_max": 94
  },
  {
    "place_name": "Yeguas",
    "roll_min": 95,
    "roll_max": 96
  },
  {
    "place_name": "Zahora",
    "roll_min": 97,
    "roll_max": 98
  },
  {
    "place_name": "Zumeta",
    "roll_min": 99,
    "roll_max": 100
  }
]
