{
  "arabic": {
    "names": [
      {
        "name_male": "Aamir",
        "name_female": "Aisha",
        "surname": "Abdel",
        "roll_min": 1,
        "roll_max": 4
      },
      {
        "name_male": "Ayub",
        "name_female": "Alimah",
        "surname": "Awad",
        "roll_min": 5,
        "roll_max": 8
      },
      {
        "name_male": "Binyamin",
        "name_female": "Badia",
        "surname": "Dahhak",
        "roll_min": 9,
        "roll_max": 12
      },
      {
        "name_male": "Efraim",
        "name_female": "Bisharah",
        "surname": "Essa",
        "roll_min": 13,
        "roll_max": 16
      },
      {
        "name_male": "Ibrahim",
        "name_female": "Chanda",
        "surname": "Hanna",
        "roll_min": 17,
        "roll_max": 20
      },
      {
        "name_male": "Ilyas",
        "name_female": "Daliya",
        "surname": "Harbi",
        "roll_min": 21,
        "roll_max": 24
      },
      {
        "name_male": "Ismail",
        "name_female": "Fatimah",
        "surname": "Hassan",
        "roll_min": 25,
        "roll_max": 28
      },
      {
        "name_male": "Jibril",
        "name_female": "Ghania",
        "surname": "Isa",
        "roll_min": 29,
        "roll_max": 32
      },
      {
        "name_male": "Jumanah",
        "name_female": "Halah",
        "surname": "Kasim",
        "roll_min": 33,
        "roll_max": 36
      },
      {
        "name_male": "Kazi",
        "name_female": "Kaylah",
        "surname": "Katib",
        "roll_min": 37,
        "roll_max": 40
      },
      {
        "name_male": "Lut",
        "name_female": "Khayrah",
        "surname": "Khalil",
        "roll_min": 41,
        "roll_max": 44
      },
      {
        "name_male": "Matta",
        "name_female": "Layla",
        "surname": "Malik",
        "roll_min": 45,
        "roll_max": 48
      },
      {
        "name_male": "Mohammed",
        "name_female": "Mina",
        "surname": "Mansoor",
        "roll_min": 49,
        "roll_max": 52
      },
      {
        "name_male": "Mubarak",
        "name_female": "Munisa",
        "surname": "Mazin",
        "roll_min": 53,
        "roll_max": 56
      },
      {
        "name_male": "Mustafa",
        "name_female": "Mysha",
        "surname": "Musa",
        "roll_min": 57,
        "roll_max": 60
      },
      {
        "name_male": "Nazir",
        "name_female": "Naimah",
        "surname": "Najeeb",
        "roll_min": 61,
        "roll_max": 64
      },
      {
        "name_male": "Rahim",
        "name_female": "Nissa",
        "surname": "Namari",
        "roll_min": 65,
        "roll_max": 68
      },
      {
        "name_male": "Reza",
        "name_female": "Nura",
        "surname": "Naser",
        "roll_min": 69,
        "roll_max": 72
      },
      {
        "name_male": "Sharif",
        "name_female": "Parveen",
        "surname": "Rahman",
        "roll_min": 73,
        "roll_max": 76
      },
      {
        "name_male": "Taimur",
        "name_female": "Rana",
        "surname": "Rasheed",
        "roll_min": 77,
        "roll_max": 80
      },
      {
        "name_male": "Usman",
        "name_female": "Shalha",
        "surname": "Saleh",
        "roll_min": 81,
        "roll_max": 84
      },
      {
        "name_male": "Yakub",
        "name_female": "Suhira",
        "surname": "Salim",
        "roll_min": 85,
        "roll_max": 88
      },
      {
        "name_male": "Yusuf",
        "name_female": "Tahirah",
        "surname": "Shadi",
        "roll_min": 89,
        "roll_max": 92
      },
      {
        "name_male": "Zakariya",
        "name_female": "Yasmin",
        "surname": "Sulaiman",
        "roll_min": 93,
        "roll_max": 96
      },
      {
        "name_male": "Zubair",
        "name_female": "Zulehka",
        "surname": "Tabari",
        "roll_min": 97,
        "roll_max": 100
      }
    ],
    "places": [
      {
        "place_name": "Adan",
        "roll_min": 1,
        "roll_max": 2
      },
      {
        "place_name": "Ahsa",
        "roll_min": 3,
        "roll_max": 4
      },
      {
        "place_name": "Andalus",
        "roll_min": 5,
        "roll_max": 6
      },
      {
        "place_name": "Asmara",
        "roll_min": 7,
        "roll_max": 8
      },
      {
        "place_name": "Asqlan",
        "roll_min": 9,
        "roll_max": 10
      },
      {
        "place_name": "Baqubah",
        "roll_min": 11,
        "roll_max": 12
      },
      {
        "place_name": "Basit",
        "roll_min": 13,
        "roll_max": 14
      },
      {
        "place_name": "Baysan",
        "roll_min": 15,
        "roll_max": 16
      },
      {
        "place_name": "Baytlahm",
        "roll_min": 17,
        "roll_max": 18
      },
      {
        "place_name": "Bursaid",
        "roll_min": 19,
        "roll_max": 20
      },
      {
        "place_name": "Dahilah",
        "roll_min": 21,
        "roll_max": 22
      },
      {
        "place_name": "Darasalam",
        "roll_min": 23,
        "roll_max": 24
      },
      {
        "place_name": "Dawhah",
        "roll_min": 25,
        "roll_max": 26
      },
      {
        "place_name": "Ganin",
        "roll_min": 27,
        "roll_max": 28
      },
      {
        "place_name": "Gebal",
        "roll_min": 29,
        "roll_max": 30
      },
      {
        "place_name": "Gibuti",
        "roll_min": 31,
        "roll_max": 32
      },
      {
        "place_name": "Giddah",
        "roll_min": 33,
        "roll_max": 34
      },
      {
        "place_name": "Harmah",
        "roll_min": 35,
        "roll_max": 36
      },
      {
        "place_name": "Hartum",
        "roll_min": 37,
        "roll_max": 38
      },
      {
        "place_name": "Hibah",
        "roll_min": 39,
        "roll_max": 40
      },
      {
        "place_name": "Hims",
        "roll_min": 41,
        "roll_max": 42
      },
      {
        "place_name": "Hubar",
        "roll_min": 43,
        "roll_max": 44
      },
      {
        "place_name": "Karbala",
        "roll_min": 45,
        "roll_max": 46
      },
      {
        "place_name": "Kut",
        "roll_min": 47,
        "roll_max": 48
      },
      {
        "place_name": "Lacant",
        "roll_min": 49,
        "roll_max": 50
      },
      {
        "place_name": "Magrit",
        "roll_min": 51,
        "roll_max": 52
      },
      {
        "place_name": "Masqat",
        "roll_min": 53,
        "roll_max": 54
      },
      {
        "place_name": "Misr",
        "roll_min": 55,
        "roll_max": 56
      },
      {
        "place_name": "Muruni",
        "roll_min": 57,
        "roll_max": 58
      },
      {
        "place_name": "Qabis",
        "roll_min": 59,
        "roll_max": 60
      },
      {
        "place_name": "Qina",
        "roll_min": 61,
        "roll_max": 62
      },
      {
        "place_name": "Rabat",
        "roll_min": 63,
        "roll_max": 64
      },
      {
        "place_name": "Ramlah",
        "roll_min": 65,
        "roll_max": 66
      },
      {
        "place_name": "Riyadh",
        "roll_min": 67,
        "roll_max": 68
      },
      {
        "place_name": "Sabtah",
        "roll_min": 69,
        "roll_max": 70
      },
      {
        "place_name": "Salalah",
        "roll_min": 71,
        "roll_max": 72
      },
      {
        "place_name": "Sana",
        "roll_min": 73,
        "roll_max": 74
      },
      {
        "place_name": "Sinqit",
        "roll_min": 75,
        "roll_max": 76
      },
      {
        "place_name": "Suqutrah",
        "roll_min": 77,
        "roll_max": 78
      },
      {
        "place_name": "Sur",
        "roll_min": 79,
        "roll_max": 80
      },
      {
        "place_name": "Tabuk",
        "roll_min": 81,
        "roll_max": 82
      },
      {
        "place_name": "Tangah",
        "roll_min": 83,
        "roll_max": 84
      },
      {
        "place_name": "Tarifah",
        "roll_min": 85,
        "roll_max": 86
      },
      {
        "place_name": "Tarrakunah",
        "roll_min": 87,
        "roll_max": 88
      },
      {
        "place_name": "Tisit",
        "roll_min": 89,
        "roll_max": 90
      },
      {
        "place_name": "Uman",
        "roll_min": 91,
        "roll_max": 92
      },
      {
        "place_name": "Urdunn",
        "roll_min": 93,
        "roll_max": 94
      },
      {
        "place_name": "Wasqah",
        "roll_min": 95,
        "roll_max": 96
      },
      {
        "place_name": "Yaburah",
        "roll_min": 97,
        "roll_max": 98
      },
      {
        "place_name": "Yaman",
        "roll_min": 99,
        "roll_max": 100
      }
    ]
  },
  "chinese": {
    "names": [
      {
        "name_male": "Aiguo",
        "name_female": "Biyu",
        "surname": "Bai",
        "roll_min": 1,
        "roll_max": 4
      },
      {
        "name_male": "Bohai",
        "name_female": "Changying",
        "surname": "Cao",
        "roll_min": 5,
        "roll_max": 8
      },
      {
        "name_male": "Chao",
        "name_female": "Daiyu",
        "surname": "Chen",
        "roll_min": 9,
        "roll_max": 12
      },
      {
        "name_male": "Dai",
        "name_female": "Huidai",
        "surname": "Cui",
        "roll_min": 13,
        "roll_max": 16
      },
      {
        "name_male": "Dawei",
        "name_female": "Huiliang",
        "surname": "Ding",
        "roll_min": 17,
        "roll_max": 20
      },
      {
        "name_male": "Duyi",
        "name_female": "Jia",
        "surname": "Du",
        "roll_min": 21,
        "roll_max": 24
      },
      {
        "name_male": "Fa",
        "name_female": "Jingfei",
        "surname": "Fang",
        "roll_min": 25,
        "roll_max": 28
      },
      {
        "name_male": "Fu",
        "name_female": "Lan",
        "surname": "Fu",
        "roll_min": 29,
        "roll_max": 32
      },
      {
        "name_male": "Gui",
        "name_female": "Liling",
        "surname": "Guo",
        "roll_min": 33,
        "roll_max": 36
      },
      {
        "name_male": "Hong",
        "name_female": "Liu",
        "surname": "Han",
        "roll_min": 37,
        "roll_max": 40
      },
      {
        "name_male": "Jianyu",
        "name_female": "Meili",
        "surname": "Hao",
        "roll_min": 41,
        "roll_max": 44
      },
      {
        "name_male": "Kang",
        "name_female": "Niu",
        "surname": "Huang",
        "roll_min": 45,
        "roll_max": 48
      },
      {
        "name_male": "Li",
        "name_female": "Peizhi",
        "surname": "Lei",
        "roll_min": 49,
        "roll_max": 52
      },
      {
        "name_male": "Niu",
        "name_female": "Qiao",
        "surname": "Li",
        "roll_min": 53,
        "roll_max": 56
      },
      {
        "name_male": "Peng",
        "name_female": "Qing",
        "surname": "Liang",
        "roll_min": 57,
        "roll_max": 60
      },
      {
        "name_male": "Quan",
        "name_female": "Ruolan",
        "surname": "Liu",
        "roll_min": 61,
        "roll_max": 64
      },
      {
        "name_male": "Ru",
        "name_female": "Shu",
        "surname": "Long",
        "roll_min": 65,
        "roll_max": 68
      },
      {
        "name_male": "Shen",
        "name_female": "Suyin",
        "surname": "Song",
        "roll_min": 69,
        "roll_max": 72
      },
      {
        "name_male": "Shi",
        "name_female": "Ting",
        "surname": "Tan",
        "roll_min": 73,
        "roll_max": 76
      },
      {
        "name_male": "Song",
        "name_female": "Xia",
        "surname": "Tang",
        "roll_min": 77,
        "roll_max": 80
      },
      {
        "name_male": "Tao",
        "name_female": "Xiaowen",
        "surname": "Wang",
        "roll_min": 81,
        "roll_max": 84
      },
      {
        "name_male": "Xue",
        "name_female": "Xiulan",
        "surname": "Wu",
        "roll_min": 85,
        "roll_max": 88
      },
      {
        "name_male": "Yi",
        "name_female": "Ya",
        "surname": "Xing",
        "roll_min": 89,
        "roll_max": 92
      },
      {
        "name_male": "Yuan",
        "name_female": "Ying",
        "surname": "Yang",
        "roll_min": 93,
        "roll_max": 96
      },
      {
        "name_male": "Zian",
        "name_female": "Zhilan",
        "surname": "Zhang",
        "roll_min": 97,
        "roll_max": 100
      }
    ],
    "places": [
      {
        "place_name": "Andong",
        "roll_min": 1,
        "roll_max": 2
      },
      {
        "place_name": "Anqing",
        "roll_min": 3,
        "roll_max": 4
      },
      {
        "place_name": "Anshan",
        "roll_min": 5,
        "roll_max": 6
      },
      {
        "place_name": "Chaoyang",
        "roll_min": 7,
        "roll_max": 8
      },
      {
        "place_name": "Chaozhou",
        "roll_min": 9,
        "roll_max": 10
      },
      {
        "place_name": "Chifeng",
        "roll_min": 11,
        "roll_max": 12
      },
      {
        "place_name": "Dalian",
        "roll_min": 13,
        "roll_max": 14
      },
      {
        "place_name": "Dunhuang",
        "roll_min": 15,
        "roll_max": 16
      },
      {
        "place_name": "Fengjia",
        "roll_min": 17,
        "roll_max": 18
      },
      {
        "place_name": "Fengtian",
        "roll_min": 19,
        "roll_max": 20
      },
      {
        "place_name": "Fuliang",
        "roll_min": 21,
        "roll_max": 22
      },
      {
        "place_name": "Fushun",
        "roll_min": 23,
        "roll_max": 24
      },
      {
        "place_name": "Gansu",
        "roll_min": 25,
        "roll_max": 26
      },
      {
        "place_name": "Ganzhou",
        "roll_min": 27,
        "roll_max": 28
      },
      {
        "place_name": "Guizhou",
        "roll_min": 29,
        "roll_max": 30
      },
      {
        "place_name": "Hotan",
        "roll_min": 31,
        "roll_max": 32
      },
      {
        "place_name": "Hunan",
        "roll_min": 33,
        "roll_max": 34
      },
      {
        "place_name": "Jinan",
        "roll_min": 35,
        "roll_max": 36
      },
      {
        "place_name": "Jingdezhen",
        "roll_min": 37,
        "roll_max": 38
      },
      {
        "place_name": "Jinxi",
        "roll_min": 39,
        "roll_max": 40
      },
      {
        "place_name": "Jinzhou",
        "roll_min": 41,
        "roll_max": 42
      },
      {
        "place_name": "Kunming",
        "roll_min": 43,
        "roll_max": 44
      },
      {
        "place_name": "Liaoning",
        "roll_min": 45,
        "roll_max": 46
      },
      {
        "place_name": "Linyi",
        "roll_min": 47,
        "roll_max": 48
      },
      {
        "place_name": "Lushun",
        "roll_min": 49,
        "roll_max": 50
      },
      {
        "place_name": "Luzhou",
        "roll_min": 51,
        "roll_max": 52
      },
      {
        "place_name": "Ningxia",
        "roll_min": 53,
        "roll_max": 54
      },
      {
        "place_name": "Pingxiang",
        "roll_min": 55,
        "roll_max": 56
      },
      {
        "place_name": "Pizhou",
        "roll_min": 57,
        "roll_max": 58
      },
      {
        "place_name": "Qidong",
        "roll_min": 59,
        "roll_max": 60
      },
      {
        "place_name": "Qingdao",
        "roll_min": 61,
        "roll_max": 62
      },
      {
        "place_name": "Qinghai",
        "roll_min": 63,
        "roll_max": 64
      },
      {
        "place_name": "Rehe",
        "roll_min": 65,
        "roll_max": 66
      },
      {
        "place_name": "Shanxi",
        "roll_min": 67,
        "roll_max": 68
      },
      {
        "place_name": "Taiyuan",
        "roll_min": 69,
        "roll_max": 70
      },
      {
        "place_name": "Tengzhou",
        "roll_min": 71,
        "roll_max": 72
      },
      {
        "place_name": "Urumqi",
        "roll_min": 73,
        "roll_max": 74
      },
      {
        "place_name": "Weifang",
        "roll_min": 75,
        "roll_max": 76
      },
      {
        "place_name": "Wugang",
        "roll_min": 77,
        "roll_max": 78
      },
      {
        "place_name": "Wuxi",
        "roll_min": 79,
        "roll_max": 80
      },
      {
        "place_name": "Xiamen",
        "roll_min": 81,
        "roll_max": 82
      },
      {
        "place_name": "Xian",
        "roll_min": 83,
        "roll_max": 84
      },
      {
        "place_name": "Xikang",
        "roll_min": 85,
        "roll_max": 86
      },
      {
        "place_name": "Xining",
        "roll_min": 87,
        "roll_max": 88
      },
      {
        "place_name": "Xinjiang",
        "roll_min": 89,
        "roll_max": 90
      },
      {
        "place_name": "Yidu",
        "roll_min": 91,
        "roll_max": 92
      },
      {
        "place_name": "Yingkou",
        "roll_min": 93,
        "roll_max": 94
      },
      {
        "place_name": "Yuxi",
        "roll_min": 95,
        "roll_max": 96
      },
      {
        "place_name": "Zigong",
        "roll_min": 97,
        "roll_max": 98
      },
      {
        "place_name": "Zoige",
        "roll_min": 99,
        "roll_max": 100
      }
    ]
  },
  "english": {
    "names": [
      {
        "name_male": "Adam",
        "name_female": "Abigail",
        "surname": "Barker",
        "roll_min": 1,
        "roll_max": 4
      },
      {
        "name_male": "Albert",
        "name_female": "Anne",
        "surname": "Brown",
        "roll_min": 5,
        "roll_max": 8
      },
      {
        "name_male": "Alfred",
        "name_female": "Beatrice",
        "surname": "Butler",
        "roll_min": 9,
        "roll_max": 12
      },
      {
        "name_male": "Allan",
        "name_female": "Blanche",
        "surname": "Carter",
        "roll_min": 13,
        "roll_max": 16
      },
      {
        "name_male": "Archibald",
        "name_female": "Catherine",
        "surname": "Chapman",
        "roll_min": 17,
        "roll_max": 20
      },
      {
        "name_male": "Arthur",
        "name_female": "Charlotte",
        "surname": "Collins",
        "roll_min": 21,
        "roll_max": 24
      },
      {
        "name_male": "Basil",
        "name_female": "Claire",
        "surname": "Cook",
        "roll_min": 25,
        "roll_max": 28
      },
      {
        "name_male": "Charles",
        "name_female": "Eleanor",
        "surname": "Davies",
        "roll_min": 29,
        "roll_max": 32
      },
      {
        "name_male": "Colin",
        "name_female": "Elizabeth",
        "surname": "Gray",
        "roll_min": 33,
        "roll_max": 36
      },
      {
        "name_male": "Donald",
        "name_female": "Emily",
        "surname": "Green",
        "roll_min": 37,
        "roll_max": 40
      },
      {
        "name_male": "Douglas",
        "name_female": "Emma",
        "surname": "Harris",
        "roll_min": 41,
        "roll_max": 44
      },
      {
        "name_male": "Edgar",
        "name_female": "Georgia",
        "surname": "Jackson",
        "roll_min": 45,
        "roll_max": 48
      },
      {
        "name_male": "Edmund",
        "name_female": "Harriet",
        "surname": "Jones",
        "roll_min": 49,
        "roll_max": 52
      },
      {
        "name_male": "Edward",
        "name_female": "Joan",
        "surname": "Lloyd",
        "roll_min": 53,
        "roll_max": 56
      },
      {
        "name_male": "George",
        "name_female": "Judy",
        "surname": "Miller",
        "roll_min": 57,
        "roll_max": 60
      },
      {
        "name_male": "Harold",
        "name_female": "Julia",
        "surname": "Roberts",
        "roll_min": 61,
        "roll_max": 64
      },
      {
        "name_male": "Henry",
        "name_female": "Lucy",
        "surname": "Smith",
        "roll_min": 65,
        "roll_max": 68
      },
      {
        "name_male": "Ian",
        "name_female": "Lydia",
        "surname": "Taylor",
        "roll_min": 69,
        "roll_max": 72
      },
      {
        "name_male": "James",
        "name_female": "Margaret",
        "surname": "Thomas",
        "roll_min": 73,
        "roll_max": 76
      },
      {
        "name_male": "John",
        "name_female": "Mary",
        "surname": "Turner",
        "roll_min": 77,
        "roll_max": 80
      },
      {
        "name_male": "Lewis",
        "name_female": "Molly",
        "surname": "Watson",
        "roll_min": 81,
        "roll_max": 84
      },
      {
        "name_male": "Oliver",
        "name_female": "Nora",
        "surname": "White",
        "roll_min": 85,
        "roll_max": 88
      },
      {
        "name_male": "Philip",
        "name_female": "Rosie",
        "surname": "Williams",
        "roll_min": 89,
        "roll_max": 92
      },
      {
        "name_male": "Richard",
        "name_female": "Sarah",
        "surname": "Wood",
        "roll_min": 93,
        "roll_max": 96
      },
      {
        "name_male": "William",
        "name_female": "Victoria",
        "surname": "Young",
        "roll_min": 97,
        "roll_max": 100
      }
    ],
    "places": [
      {
        "place_name": "Aldington",
        "roll_min": 1,
        "roll_max": 2
      },
      {
        "place_name": "Appleton",
        "roll_min": 3,
        "roll_max": 4
      },
      {
        "place_name": "Ashdon",
        "roll_min": 5,
        "roll_max": 6
      },
      {
        "place_name": "Berwick",
        "roll_min": 7,
        "roll_max": 8
      },
      {
        "place_name": "Bramford",
        "roll_min": 9,
        "roll_max": 10
      },
      {
        "place_name": "Brimstage",
        "roll_min": 11,
        "roll_max": 12
      },
      {
        "place_name": "Carden",
        "roll_min": 13,
        "roll_max": 14
      },
      {
        "place_name": "Churchill",
        "roll_min": 15,
        "roll_max": 16
      },
      {
        "place_name": "Clifton",
        "roll_min": 17,
        "roll_max": 18
      },
      {
        "place_name": "Colby",
        "roll_min": 19,
        "roll_max": 20
      },
      {
        "place_name": "Copford",
        "roll_min": 21,
        "roll_max": 22
      },
      {
        "place_name": "Cromer",
        "roll_min": 23,
        "roll_max": 24
      },
      {
        "place_name": "Davenham",
        "roll_min": 25,
        "roll_max": 26
      },
      {
        "place_name": "Dersingham",
        "roll_min": 27,
        "roll_max": 28
      },
      {
        "place_name": "Doverdale",
        "roll_min": 29,
        "roll_max": 30
      },
      {
        "place_name": "Elsted",
        "roll_min": 31,
        "roll_max": 32
      },
      {
        "place_name": "Ferring",
        "roll_min": 33,
        "roll_max": 34
      },
      {
        "place_name": "Gissing",
        "roll_min": 35,
        "roll_max": 36
      },
      {
        "place_name": "Heydon",
        "roll_min": 37,
        "roll_max": 38
      },
      {
        "place_name": "Holt",
        "roll_min": 39,
        "roll_max": 40
      },
      {
        "place_name": "Hunston",
        "roll_min": 41,
        "roll_max": 42
      },
      {
        "place_name": "Hutton",
        "roll_min": 43,
        "roll_max": 44
      },
      {
        "place_name": "Inkberrow",
        "roll_min": 45,
        "roll_max": 46
      },
      {
        "place_name": "Inworth",
        "roll_min": 47,
        "roll_max": 48
      },
      {
        "place_name": "Isfield",
        "roll_min": 49,
        "roll_max": 50
      },
      {
        "place_name": "Kedington",
        "roll_min": 51,
        "roll_max": 52
      },
      {
        "place_name": "Latchford",
        "roll_min": 53,
        "roll_max": 54
      },
      {
        "place_name": "Leigh",
        "roll_min": 55,
        "roll_max": 56
      },
      {
        "place_name": "Leighton",
        "roll_min": 57,
        "roll_max": 58
      },
      {
        "place_name": "Maresfield",
        "roll_min": 59,
        "roll_max": 60
      },
      {
        "place_name": "Markshall",
        "roll_min": 61,
        "roll_max": 62
      },
      {
        "place_name": "Netherpool",
        "roll_min": 63,
        "roll_max": 64
      },
      {
        "place_name": "Newton",
        "roll_min": 65,
        "roll_max": 66
      },
      {
        "place_name": "Oxton",
        "roll_min": 67,
        "roll_max": 68
      },
      {
        "place_name": "Preston",
        "roll_min": 69,
        "roll_max": 70
      },
      {
        "place_name": "Ridley",
        "roll_min": 71,
        "roll_max": 72
      },
      {
        "place_name": "Rochford",
        "roll_min": 73,
        "roll_max": 74
      },
      {
        "place_name": "Seaford",
        "roll_min": 75,
        "roll_max": 76
      },
      {
        "place_name": "Selsey",
        "roll_min": 77,
        "roll_max": 78
      },
      {
        "place_name": "Stanton",
        "roll_min": 79,
        "roll_max": 80
      },
      {
        "place_name": "Stockham",
        "roll_min": 81,
        "roll_max": 82
      },
      {
        "place_name": "Stoke",
        "roll_min": 83,
        "roll_max": 84
      },
      {
        "place_name": "Sutton",
        "roll_min": 85,
        "roll_max": 86
      },
      {
        "place_name": "Thakeham",
        "roll_min": 87,
        "roll_max": 88
      },
      {
        "place_name": "Thetford",
        "roll_min": 89,
        "roll_max": 90
      },
      {
        "place_name": "Thorndon",
        "roll_min": 91,
        "roll_max": 92
      },
      {
        "place_name": "Ulting",
        "roll_min": 93,
        "roll_max": 94
      },
      {
        "place_name": "Upton",
        "roll_min": 95,
        "roll_max": 96
      },
      {
        "place_name": "Westhorpe",
        "roll_min": 97,
        "roll_max": 98
      },
      {
        "place_name": "Worcester",
        "roll_min": 99,
        "roll_max": 100
      }
    ]
  },
  "greek": {
    "names": [
      {
        "name_male": "Alexander",
        "name_female": "Alexandra",
        "surname": "Andreas",
        "roll_min": 1,
        "roll_max": 4
      },
      {
        "name_male": "Alexius",
        "name_female": "Amalia",
        "surname": "Argyros",
        "roll_min": 5,
        "roll_max": 8
      },
      {
        "name_male": "Anastasius",
        "name_female": "Callisto",
        "surname": "Dimitriou",
        "roll_min": 9,
        "roll_max": 12
      },
      {
        "name_male": "Christodoulos",
        "name_female": "Charis",
        "surname": "Floros",
        "roll_min": 13,
        "roll_max": 16
      },
      {
        "name_male": "Christos",
        "name_female": "Chloe",
        "surname": "Gavras",
        "roll_min": 17,
        "roll_max": 20
      },
      {
        "name_male": "Damian",
        "name_female": "Dorothea",
        "surname": "Ioannidis",
        "roll_min": 21,
        "roll_max": 24
      },
      {
        "name_male": "Dimitris",
        "name_female": "Elena",
        "surname": "Katsaros",
        "roll_min": 25,
        "roll_max": 28
      },
      {
        "name_male": "Dysmas",
        "name_female": "Eudoxia",
        "surname": "Kyrkos",
        "roll_min": 29,
        "roll_max": 32
      },
      {
        "name_male": "Elias",
        "name_female": "Giada",
        "surname": "Leventis",
        "roll_min": 33,
        "roll_max": 36
      },
      {
        "name_male": "Giorgos",
        "name_female": "Helena",
        "surname": "Makris",
        "roll_min": 37,
        "roll_max": 40
      },
      {
        "name_male": "Ioannis",
        "name_female": "Ioanna",
        "surname": "Metaxas",
        "roll_min": 41,
        "roll_max": 44
      },
      {
        "name_male": "Konstantinos",
        "name_female": "Lydia",
        "surname": "Nikolaidis",
        "roll_min": 45,
        "roll_max": 48
      },
      {
        "name_male": "Lambros",
        "name_female": "Melania",
        "surname": "Pallis",
        "roll_min": 49,
        "roll_max": 52
      },
      {
        "name_male": "Leonidas",
        "name_female": "Melissa",
        "surname": "Pappas",
        "roll_min": 53,
        "roll_max": 56
      },
      {
        "name_male": "Marcos",
        "name_female": "Nika",
        "surname": "Petrou",
        "roll_min": 57,
        "roll_max": 60
      },
      {
        "name_male": "Miltiades",
        "name_female": "Nikolina",
        "surname": "Raptis",
        "roll_min": 61,
        "roll_max": 64
      },
      {
        "name_male": "Nestor",
        "name_female": "Olympias",
        "surname": "Simonides",
        "roll_min": 65,
        "roll_max": 68
      },
      {
        "name_male": "Nikos",
        "name_female": "Philippa",
        "surname": "Spiros",
        "roll_min": 69,
        "roll_max": 72
      },
      {
        "name_male": "Orestes",
        "name_female": "Phoebe",
        "surname": "Stavros",
        "roll_min": 73,
        "roll_max": 76
      },
      {
        "name_male": "Petros",
        "name_female": "Sophia",
        "surname": "Stephanidis",
        "roll_min": 77,
        "roll_max": 80
      },
      {
        "name_male": "Simon",
        "name_female": "Theodora",
        "surname": "Stratigos",
        "roll_min": 81,
        "roll_max": 84
      },
      {
        "name_male": "Stavros",
        "name_female": "Valentina",
        "surname": "Terzis",
        "roll_min": 85,
        "roll_max": 88
      },
      {
        "name_male": "Theodore",
        "name_female": "Valeria",
        "surname": "Theodorou",
        "roll_min": 89,
        "roll_max": 92
      },
      {
        "name_male": "Vassilios",
        "name_female": "Yianna",
        "surname": "Vasiliadis",
        "roll_min": 93,
        "roll_max": 96
      },
      {
        "name_male": "Yannis",
        "name_female": "Zoe",
        "surname": "Yannakakis",
        "roll_min": 97,
        "roll_max": 100
      }
    ],
    "places": [
      {
        "place_name": "Adramyttion",
        "roll_min": 1,
        "roll_max": 2
      },
      {
        "place_name": "Ainos",
        "roll_min": 3,
        "roll_max": 4
      },
      {
        "place_name": "Alikarnassos",
        "roll_min": 5,
        "roll_max": 6
      },
      {
        "place_name": "Avydos",
        "roll_min": 7,
        "roll_max": 8
      },
      {
        "place_name": "Dakia",
        "roll_min": 9,
        "roll_max": 10
      },
      {
        "place_name": "Dardanos",
        "roll_min": 11,
        "roll_max": 12
      },
      {
        "place_name": "Dekapoli",
        "roll_min": 13,
        "roll_max": 14
      },
      {
        "place_name": "Dodoni",
        "roll_min": 15,
        "roll_max": 16
      },
      {
        "place_name": "Efesos",
        "roll_min": 17,
        "roll_max": 18
      },
      {
        "place_name": "Efstratios",
        "roll_min": 19,
        "roll_max": 20
      },
      {
        "place_name": "Elefsina",
        "roll_min": 21,
        "roll_max": 22
      },
      {
        "place_name": "Ellada",
        "roll_min": 23,
        "roll_max": 24
      },
      {
        "place_name": "Epidavros",
        "roll_min": 25,
        "roll_max": 26
      },
      {
        "place_name": "Erymanthos",
        "roll_min": 27,
        "roll_max": 28
      },
      {
        "place_name": "Evripos",
        "roll_min": 29,
        "roll_max": 30
      },
      {
        "place_name": "Gavdos",
        "roll_min": 31,
        "roll_max": 32
      },
      {
        "place_name": "Gytheio",
        "roll_min": 33,
        "roll_max": 34
      },
      {
        "place_name": "Ikaria",
        "roll_min": 35,
        "roll_max": 36
      },
      {
        "place_name": "Ilios",
        "roll_min": 37,
        "roll_max": 38
      },
      {
        "place_name": "Illyria",
        "roll_min": 39,
        "roll_max": 40
      },
      {
        "place_name": "Iraia",
        "roll_min": 41,
        "roll_max": 42
      },
      {
        "place_name": "Irakleio",
        "roll_min": 43,
        "roll_max": 44
      },
      {
        "place_name": "Isminos",
        "roll_min": 45,
        "roll_max": 46
      },
      {
        "place_name": "Ithaki",
        "roll_min": 47,
        "roll_max": 48
      },
      {
        "place_name": "Kadmeia",
        "roll_min": 49,
        "roll_max": 50
      },
      {
        "place_name": "Kallisto",
        "roll_min": 51,
        "roll_max": 52
      },
      {
        "place_name": "Katerini",
        "roll_min": 53,
        "roll_max": 54
      },
      {
        "place_name": "Kithairon",
        "roll_min": 55,
        "roll_max": 56
      },
      {
        "place_name": "Kydonia",
        "roll_min": 57,
        "roll_max": 58
      },
      {
        "place_name": "Lakonia",
        "roll_min": 59,
        "roll_max": 60
      },
      {
        "place_name": "Leros",
        "roll_min": 61,
        "roll_max": 62
      },
      {
        "place_name": "Lesvos",
        "roll_min": 63,
        "roll_max": 64
      },
      {
        "place_name": "Limnos",
        "roll_min": 65,
        "roll_max": 66
      },
      {
        "place_name": "Lykia",
        "roll_min": 67,
        "roll_max": 68
      },
      {
        "place_name": "Megara",
        "roll_min": 69,
        "roll_max": 70
      },
      {
        "place_name": "Messene",
        "roll_min": 71,
        "roll_max": 72
      },
      {
        "place_name": "Milos",
        "roll_min": 73,
        "roll_max": 74
      },
      {
        "place_name": "Nikaia",
        "roll_min": 75,
        "roll_max": 76
      },
      {
        "place_name": "Orontis",
        "roll_min": 77,
        "roll_max": 78
      },
      {
        "place_name": "Parnasos",
        "roll_min": 79,
        "roll_max": 80
      },
      {
        "place_name": "Petro",
        "roll_min": 81,
        "roll_max": 82
      },
      {
        "place_name": "Samos",
        "roll_min": 83,
        "roll_max": 84
      },
      {
        "place_name": "Syros",
        "roll_min": 85,
        "roll_max": 86
      },
      {
        "place_name": "Thapsos",
        "roll_min": 87,
        "roll_max": 88
      },
      {
        "place_name": "Thessalia",
        "roll_min": 89,
        "roll_max": 90
      },
      {
        "place_name": "Thira",
        "roll_min": 91,
        "roll_max": 92
      },
      {
        "place_name": "Thiva",
        "roll_min": 93,
        "roll_max": 94
      },
      {
        "place_name": "Varvara",
        "roll_min": 95,
        "roll_max": 96
      },
      {
        "place_name": "Voiotia",
        "roll_min": 97,
        "roll_max": 98
      },
      {
        "place_name": "Vyvlos",
        "roll_min": 99,
        "roll_max": 100
      }
    ]
  },
  "indian": {
    "names": [
      {
        "name_male": "Amrit",
        "name_female": "Amala",
        "surname": "Achari",
        "roll_min": 1,
        "roll_max": 4
      },
      {
        "name_male": "Ashok",
        "name_female": "Asha",
        "surname": "Banerjee",
        "roll_min": 5,
        "roll_max": 8
      },
      {
        "name_male": "Chand",
        "name_female": "Chandra",
        "surname": "Bhatnagar",
        "roll_min": 9,
        "roll_max": 12
      },
      {
        "name_male": "Dinesh",
        "name_female": "Devika",
        "surname": "Bose",
        "roll_min": 13,
        "roll_max": 16
      },
      {
        "name_male": "Gobind",
        "name_female": "Esha",
        "surname": "Chauhan",
        "roll_min": 17,
        "roll_max": 20
      },
      {
        "name_male": "Harinder",
        "name_female": "Gita",
        "surname": "Chopra",
        "roll_min": 21,
        "roll_max": 24
      },
      {
        "name_male": "Jagdish",
        "name_female": "Indira",
        "surname": "Das",
        "roll_min": 25,
        "roll_max": 28
      },
      {
        "name_male": "Johar",
        "name_female": "Indrani",
        "surname": "Dutta",
        "roll_min": 29,
        "roll_max": 32
      },
      {
        "name_male": "Kurien",
        "name_female": "Jaya",
        "surname": "Gupta",
        "roll_min": 33,
        "roll_max": 36
      },
      {
        "name_male": "Lakshman",
        "name_female": "Jayanti",
        "surname": "Johar",
        "roll_min": 37,
        "roll_max": 40
      },
      {
        "name_male": "Madhav",
        "name_female": "Kiri",
        "surname": "Kapoor",
        "roll_min": 41,
        "roll_max": 44
      },
      {
        "name_male": "Mahinder",
        "name_female": "Lalita",
        "surname": "Mahajan",
        "roll_min": 45,
        "roll_max": 48
      },
      {
        "name_male": "Mohal",
        "name_female": "Malati",
        "surname": "Malhotra",
        "roll_min": 49,
        "roll_max": 52
      },
      {
        "name_male": "Narinder",
        "name_female": "Mira",
        "surname": "Mehra",
        "roll_min": 53,
        "roll_max": 56
      },
      {
        "name_male": "Nikhil",
        "name_female": "Mohana",
        "surname": "Nehru",
        "roll_min": 57,
        "roll_max": 60
      },
      {
        "name_male": "Omrao",
        "name_female": "Neela",
        "surname": "Patil",
        "roll_min": 61,
        "roll_max": 64
      },
      {
        "name_male": "Prasad",
        "name_female": "Nita",
        "surname": "Rao",
        "roll_min": 65,
        "roll_max": 68
      },
      {
        "name_male": "Pratap",
        "name_female": "Rajani",
        "surname": "Saxena",
        "roll_min": 69,
        "roll_max": 72
      },
      {
        "name_male": "Ranjit",
        "name_female": "Sarala",
        "surname": "Shah",
        "roll_min": 73,
        "roll_max": 76
      },
      {
        "name_male": "Sanjay",
        "name_female": "Sarika",
        "surname": "Sharma",
        "roll_min": 77,
        "roll_max": 80
      },
      {
        "name_male": "Shankar",
        "name_female": "Sheela",
        "surname": "Singh",
        "roll_min": 81,
        "roll_max": 84
      },
      {
        "name_male": "Thakur",
        "name_female": "Sunita",
        "surname": "Trivedi",
        "roll_min": 85,
        "roll_max": 88
      },
      {
        "name_male": "Vijay",
        "name_female": "Trishna",
        "surname": "Venkatesan",
        "roll_min": 89,
        "roll_max": 92
      },
      {
        "name_male": "Vipul",
        "name_female": "Usha",
        "surname": "Verma",
        "roll_min": 93,
        "roll_max": 96
      },
      {
        "name_male": "Yash",
        "name_female": "Vasanta",
        "surname": "Yadav",
        "roll_min": 97,
        "roll_max": 100
      }
    ],
    "places": [
      {
        "place_name": "Ahmedabad",
        "roll_min": 1,
        "roll_max": 2
      },
      {
        "place_name": "Alipurduar",
        "roll_min": 3,
        "roll_max": 4
      },
      {
        "place_name": "Alubari",
        "roll_min": 5,
        "roll_max": 6
      },
      {
        "place_name": "Anjanadri",
        "roll_min": 7,
        "roll_max": 8
      },
      {
        "place_name": "Ankleshwar",
        "roll_min": 9,
        "roll_max": 10
      },
      {
        "place_name": "Balarika",
        "roll_min": 11,
        "roll_max": 12
      },
      {
        "place_name": "Bhanuja",
        "roll_min": 13,
        "roll_max": 14
      },
      {
        "place_name": "Bhilwada",
        "roll_min": 15,
        "roll_max": 16
      },
      {
        "place_name": "Brahmaghosa",
        "roll_min": 17,
        "roll_max": 18
      },
      {
        "place_name": "Bulandshahar",
        "roll_min": 19,
        "roll_max": 20
      },
      {
        "place_name": "Candrama",
        "roll_min": 21,
        "roll_max": 22
      },
      {
        "place_name": "Chalisgaon",
        "roll_min": 23,
        "roll_max": 24
      },
      {
        "place_name": "Chandragiri",
        "roll_min": 25,
        "roll_max": 26
      },
      {
        "place_name": "Charbagh",
        "roll_min": 27,
        "roll_max": 28
      },
      {
        "place_name": "Chayanka",
        "roll_min": 29,
        "roll_max": 30
      },
      {
        "place_name": "Chittorgarh",
        "roll_min": 31,
        "roll_max": 32
      },
      {
        "place_name": "Dayabasti",
        "roll_min": 33,
        "roll_max": 34
      },
      {
        "place_name": "Dikpala",
        "roll_min": 35,
        "roll_max": 36
      },
      {
        "place_name": "Ekanga",
        "roll_min": 37,
        "roll_max": 38
      },
      {
        "place_name": "Gandhidham",
        "roll_min": 39,
        "roll_max": 40
      },
      {
        "place_name": "Gollaprolu",
        "roll_min": 41,
        "roll_max": 42
      },
      {
        "place_name": "Grahisa",
        "roll_min": 43,
        "roll_max": 44
      },
      {
        "place_name": "Guwahati",
        "roll_min": 45,
        "roll_max": 46
      },
      {
        "place_name": "Haridasva",
        "roll_min": 47,
        "roll_max": 48
      },
      {
        "place_name": "Indraprastha",
        "roll_min": 49,
        "roll_max": 50
      },
      {
        "place_name": "Jaisalmer",
        "roll_min": 51,
        "roll_max": 52
      },
      {
        "place_name": "Jharonda",
        "roll_min": 53,
        "roll_max": 54
      },
      {
        "place_name": "Kadambur",
        "roll_min": 55,
        "roll_max": 56
      },
      {
        "place_name": "Kalasipalyam",
        "roll_min": 57,
        "roll_max": 58
      },
      {
        "place_name": "Karnataka",
        "roll_min": 59,
        "roll_max": 60
      },
      {
        "place_name": "Kutchuhery",
        "roll_min": 61,
        "roll_max": 62
      },
      {
        "place_name": "Lalgola",
        "roll_min": 63,
        "roll_max": 64
      },
      {
        "place_name": "Mainaguri",
        "roll_min": 65,
        "roll_max": 66
      },
      {
        "place_name": "Nainital",
        "roll_min": 67,
        "roll_max": 68
      },
      {
        "place_name": "Nandidurg",
        "roll_min": 69,
        "roll_max": 70
      },
      {
        "place_name": "Narayanadri",
        "roll_min": 71,
        "roll_max": 72
      },
      {
        "place_name": "Panipat",
        "roll_min": 73,
        "roll_max": 74
      },
      {
        "place_name": "Panjagutta",
        "roll_min": 75,
        "roll_max": 76
      },
      {
        "place_name": "Pathankot",
        "roll_min": 77,
        "roll_max": 78
      },
      {
        "place_name": "Pathardih",
        "roll_min": 79,
        "roll_max": 80
      },
      {
        "place_name": "Porbandar",
        "roll_min": 81,
        "roll_max": 82
      },
      {
        "place_name": "Rajasthan",
        "roll_min": 83,
        "roll_max": 84
      },
      {
        "place_name": "Renigunta",
        "roll_min": 85,
        "roll_max": 86
      },
      {
        "place_name": "Sewagram",
        "roll_min": 87,
        "roll_max": 88
      },
      {
        "place_name": "Shakurbasti",
        "roll_min": 89,
        "roll_max": 90
      },
      {
        "place_name": "Siliguri",
        "roll_min": 91,
        "roll_max": 92
      },
      {
        "place_name": "Sonepat",
        "roll_min": 93,
        "roll_max": 94
      },
      {
        "place_name": "Teliwara",
        "roll_min": 95,
        "roll_max": 96
      },
      {
        "place_name": "Tinpahar",
        "roll_min": 97,
        "roll_max": 98
      },
      {
        "place_name": "Villivakkam",
        "roll_min": 99,
        "roll_max": 100
      }
    ]
  },
  "japanese": {
    "names": [
      {
        "name_male": "Akira",
        "name_female": "Aemi",
        "surname": "Abe",
        "roll_min": 1,
        "roll_max": 4
      },
      {
        "name_male": "Daisuke",
        "name_female": "Airi",
        "surname": "Arakaki",
        "roll_min": 5,
        "roll_max": 8
      },
      {
        "name_male": "Fukashi",
        "name_female": "Ako",
        "surname": "Endo",
        "roll_min": 9,
        "roll_max": 12
      },
      {
        "name_male": "Goro",
        "name_female": "Ayu",
        "surname": "Fujiwara",
        "roll_min": 13,
        "roll_max": 16
      },
      {
        "name_male": "Hiro",
        "name_female": "Chikaze",
        "surname": "Goto",
        "roll_min": 17,
        "roll_max": 20
      },
      {
        "name_male": "Hiroya",
        "name_female": "Eriko",
        "surname": "Ito",
        "roll_min": 21,
        "roll_max": 24
      },
      {
        "name_male": "Hotaka",
        "name_female": "Hina",
        "surname": "Kikuchi",
        "roll_min": 25,
        "roll_max": 28
      },
      {
        "name_male": "Katsu",
        "name_female": "Kaori",
        "surname": "Kinjo",
        "roll_min": 29,
        "roll_max": 32
      },
      {
        "name_male": "Katsuto",
        "name_female": "Keiko",
        "surname": "Kobayashi",
        "roll_min": 33,
        "roll_max": 36
      },
      {
        "name_male": "Keishuu",
        "name_female": "Kyouka",
        "surname": "Koga",
        "roll_min": 37,
        "roll_max": 40
      },
      {
        "name_male": "Kyuuto",
        "name_female": "Mayumi",
        "surname": "Komatsu",
        "roll_min": 41,
        "roll_max": 44
      },
      {
        "name_male": "Mikiya",
        "name_female": "Miho",
        "surname": "Maeda",
        "roll_min": 45,
        "roll_max": 48
      },
      {
        "name_male": "Mitsunobu",
        "name_female": "Namiko",
        "surname": "Nakamura",
        "roll_min": 49,
        "roll_max": 52
      },
      {
        "name_male": "Mitsuru",
        "name_female": "Natsu",
        "surname": "Narita",
        "roll_min": 53,
        "roll_max": 56
      },
      {
        "name_male": "Naruhiko",
        "name_female": "Nobuko",
        "surname": "Ochi",
        "roll_min": 57,
        "roll_max": 60
      },
      {
        "name_male": "Nobu",
        "name_female": "Rei",
        "surname": "Oshiro",
        "roll_min": 61,
        "roll_max": 64
      },
      {
        "name_male": "Shigeo",
        "name_female": "Ririsa",
        "surname": "Saito",
        "roll_min": 65,
        "roll_max": 68
      },
      {
        "name_male": "Shigeto",
        "name_female": "Sakimi",
        "surname": "Sakamoto",
        "roll_min": 69,
        "roll_max": 72
      },
      {
        "name_male": "Shou",
        "name_female": "Shihoko",
        "surname": "Sato",
        "roll_min": 73,
        "roll_max": 76
      },
      {
        "name_male": "Shuji",
        "name_female": "Shika",
        "surname": "Suzuki",
        "roll_min": 77,
        "roll_max": 80
      },
      {
        "name_male": "Takaharu",
        "name_female": "Tsukiko",
        "surname": "Takahashi",
        "roll_min": 81,
        "roll_max": 84
      },
      {
        "name_male": "Teruaki",
        "name_female": "Tsuzune",
        "surname": "Tanaka",
        "roll_min": 85,
        "roll_max": 88
      },
      {
        "name_male": "Tetsushi",
        "name_female": "Yoriko",
        "surname": "Watanabe",
        "roll_min": 89,
        "roll_max": 92
      },
      {
        "name_male": "Tsukasa",
        "name_female": "Yorimi",
        "surname": "Yamamoto",
        "roll_min": 93,
        "roll_max": 96
      },
      {
        "name_male": "Yasuharu",
        "name_female": "Yoshiko",
        "surname": "Yamasaki",
        "roll_min": 97,
        "roll_max": 100
      }
    ],
    "places": [
      {
        "place_name": "Bando",
        "roll_min": 1,
        "roll_max": 2
      },
      {
        "place_name": "Chikuma",
        "roll_min": 3,
        "roll_max": 4
      },
      {
        "place_name": "Chikusei",
        "roll_min": 5,
        "roll_max": 6
      },
      {
        "place_name": "Chino",
        "roll_min": 7,
        "roll_max": 8
      },
      {
        "place_name": "Hitachi",
        "roll_min": 9,
        "roll_max": 10
      },
      {
        "place_name": "Hitachinaka",
        "roll_min": 11,
        "roll_max": 12
      },
      {
        "place_name": "Hitachiomiya",
        "roll_min": 13,
        "roll_max": 14
      },
      {
        "place_name": "Hitachiota",
        "roll_min": 15,
        "roll_max": 16
      },
      {
        "place_name": "Iida",
        "roll_min": 17,
        "roll_max": 18
      },
      {
        "place_name": "Iiyama",
        "roll_min": 19,
        "roll_max": 20
      },
      {
        "place_name": "Ina",
        "roll_min": 21,
        "roll_max": 22
      },
      {
        "place_name": "Inashiki",
        "roll_min": 23,
        "roll_max": 24
      },
      {
        "place_name": "Ishioka",
        "roll_min": 25,
        "roll_max": 26
      },
      {
        "place_name": "Itako",
        "roll_min": 27,
        "roll_max": 28
      },
      {
        "place_name": "Kamisu",
        "roll_min": 29,
        "roll_max": 30
      },
      {
        "place_name": "Kasama",
        "roll_min": 31,
        "roll_max": 32
      },
      {
        "place_name": "Kashima",
        "roll_min": 33,
        "roll_max": 34
      },
      {
        "place_name": "Kasumigaura",
        "roll_min": 35,
        "roll_max": 36
      },
      {
        "place_name": "Kitaibaraki",
        "roll_min": 37,
        "roll_max": 38
      },
      {
        "place_name": "Kiyose",
        "roll_min": 39,
        "roll_max": 40
      },
      {
        "place_name": "Koga",
        "roll_min": 41,
        "roll_max": 42
      },
      {
        "place_name": "Komagane",
        "roll_min": 43,
        "roll_max": 44
      },
      {
        "place_name": "Komoro",
        "roll_min": 45,
        "roll_max": 46
      },
      {
        "place_name": "Matsumoto",
        "roll_min": 47,
        "roll_max": 48
      },
      {
        "place_name": "Mito",
        "roll_min": 49,
        "roll_max": 50
      },
      {
        "place_name": "Mitsukaido",
        "roll_min": 51,
        "roll_max": 52
      },
      {
        "place_name": "Moriya",
        "roll_min": 53,
        "roll_max": 54
      },
      {
        "place_name": "Nagano",
        "roll_min": 55,
        "roll_max": 56
      },
      {
        "place_name": "Naka",
        "roll_min": 57,
        "roll_max": 58
      },
      {
        "place_name": "Nakano",
        "roll_min": 59,
        "roll_max": 60
      },
      {
        "place_name": "Ogi",
        "roll_min": 61,
        "roll_max": 62
      },
      {
        "place_name": "Okaya",
        "roll_min": 63,
        "roll_max": 64
      },
      {
        "place_name": "Omachi",
        "roll_min": 65,
        "roll_max": 66
      },
      {
        "place_name": "Ryugasaki",
        "roll_min": 67,
        "roll_max": 68
      },
      {
        "place_name": "Saku",
        "roll_min": 69,
        "roll_max": 70
      },
      {
        "place_name": "Settsu",
        "roll_min": 71,
        "roll_max": 72
      },
      {
        "place_name": "Shimotsuma",
        "roll_min": 73,
        "roll_max": 74
      },
      {
        "place_name": "Shiojiri",
        "roll_min": 75,
        "roll_max": 76
      },
      {
        "place_name": "Suwa",
        "roll_min": 77,
        "roll_max": 78
      },
      {
        "place_name": "Suzaka",
        "roll_min": 79,
        "roll_max": 80
      },
      {
        "place_name": "Takahagi",
        "roll_min": 81,
        "roll_max": 82
      },
      {
        "place_name": "Takeo",
        "roll_min": 83,
        "roll_max": 84
      },
      {
        "place_name": "Tomi",
        "roll_min": 85,
        "roll_max": 86
      },
      {
        "place_name": "Toride",
        "roll_min": 87,
        "roll_max": 88
      },
      {
        "place_name": "Tsuchiura",
        "roll_min": 89,
        "roll_max": 90
      },
      {
        "place_name": "Tsukuba",
        "roll_min": 91,
        "roll_max": 92
      },
      {
        "place_name": "Ueda",
        "roll_min": 93,
        "roll_max": 94
      },
      {
        "place_name": "Ushiku",
        "roll_min": 95,
        "roll_max": 96
      },
      {
        "place_name": "Yoshikawa",
        "roll_min": 97,
        "roll_max": 98
      },
      {
        "place_name": "Yuki",
        "roll_min": 99,
        "roll_max": 100
      }
    ]
  },
  "latin": {
    "names": [
      {
        "name_male": "Agrippa",
        "name_female": "Appia",
        "surname": "Antius",
        "roll_min": 1,
        "roll_max": 4
      },
      {
        "name_male": "Appius",
        "name_female": "Aula",
        "surname": "Aurius",
        "roll_min": 5,
        "roll_max": 8
      },
      {
        "name_male": "Aulus",
        "name_female": "Caesula",
        "surname": "Barbatius",
        "roll_min": 9,
        "roll_max": 12
      },
      {
        "name_male": "Caeso",
        "name_female": "Decima",
        "surname": "Calidius",
        "roll_min": 13,
        "roll_max": 16
      },
      {
        "name_male": "Decimus",
        "name_female": "Fausta",
        "surname": "Cornelius",
        "roll_min": 17,
        "roll_max": 20
      },
      {
        "name_male": "Faustus",
        "name_female": "Gaia",
        "surname": "Decius",
        "roll_min": 21,
        "roll_max": 24
      },
      {
        "name_male": "Gaius",
        "name_female": "Gnaea",
        "surname": "Fabius",
        "roll_min": 25,
        "roll_max": 28
      },
      {
        "name_male": "Gnaeus",
        "name_female": "Hosta",
        "surname": "Flavius",
        "roll_min": 29,
        "roll_max": 32
      },
      {
        "name_male": "Hostus",
        "name_female": "Lucia",
        "surname": "Galerius",
        "roll_min": 33,
        "roll_max": 36
      },
      {
        "name_male": "Lucius",
        "name_female": "Maio",
        "surname": "Horatius",
        "roll_min": 37,
        "roll_max": 40
      },
      {
        "name_male": "Mamercus",
        "name_female": "Marcia",
        "surname": "Julius",
        "roll_min": 41,
        "roll_max": 44
      },
      {
        "name_male": "Manius",
        "name_female": "Maxima",
        "surname": "Juventius",
        "roll_min": 45,
        "roll_max": 48
      },
      {
        "name_male": "Marcus",
        "name_female": "Mettia",
        "surname": "Licinius",
        "roll_min": 49,
        "roll_max": 52
      },
      {
        "name_male": "Mettius",
        "name_female": "Nona",
        "surname": "Marius",
        "roll_min": 53,
        "roll_max": 56
      },
      {
        "name_male": "Nonus",
        "name_female": "Numeria",
        "surname": "Minicius",
        "roll_min": 57,
        "roll_max": 60
      },
      {
        "name_male": "Numerius",
        "name_female": "Octavia",
        "surname": "Nerius",
        "roll_min": 61,
        "roll_max": 64
      },
      {
        "name_male": "Opiter",
        "name_female": "Postuma",
        "surname": "Octavius",
        "roll_min": 65,
        "roll_max": 68
      },
      {
        "name_male": "Paulus",
        "name_female": "Prima",
        "surname": "Pompeius",
        "roll_min": 69,
        "roll_max": 72
      },
      {
        "name_male": "Proculus",
        "name_female": "Procula",
        "surname": "Quinctius",
        "roll_min": 73,
        "roll_max": 76
      },
      {
        "name_male": "Publius",
        "name_female": "Septima",
        "surname": "Rutilius",
        "roll_min": 77,
        "roll_max": 80
      },
      {
        "name_male": "Quintus",
        "name_female": "Servia",
        "surname": "Sextius",
        "roll_min": 81,
        "roll_max": 84
      },
      {
        "name_male": "Servius",
        "name_female": "Tertia",
        "surname": "Titius",
        "roll_min": 85,
        "roll_max": 88
      },
      {
        "name_male": "Tiberius",
        "name_female": "Tiberia",
        "surname": "Ulpius",
        "roll_min": 89,
        "roll_max": 92
      },
      {
        "name_male": "Titus",
        "name_female": "Titia",
        "surname": "Valerius",
        "roll_min": 93,
        "roll_max": 96
      },
      {
        "name_male": "Volescus",
        "name_female": "Vibia",
        "surname": "Vitellius",
        "roll_min": 97,
        "roll_max": 100
      }
    ],
    "places": [
      {
        "place_name": "Abilia",
        "roll_min": 1,
        "roll_max": 2
      },
      {
        "place_name": "Alsium",
        "roll_min": 3,
        "roll_max": 4
      },
      {
        "place_name": "Aquileia",
        "roll_min": 5,
        "roll_max": 6
      },
      {
        "place_name": "Argentoratum",
        "roll_min": 7,
        "roll_max": 8
      },
      {
        "place_name": "Ascrivium",
        "roll_min": 9,
        "roll_max": 10
      },
      {
        "place_name": "Asculum",
        "roll_min": 11,
        "roll_max": 12
      },
      {
        "place_name": "Attalia",
        "roll_min": 13,
        "roll_max": 14
      },
      {
        "place_name": "Barium",
        "roll_min": 15,
        "roll_max": 16
      },
      {
        "place_name": "Batavorum",
        "roll_min": 17,
        "roll_max": 18
      },
      {
        "place_name": "Belum",
        "roll_min": 19,
        "roll_max": 20
      },
      {
        "place_name": "Bobbium",
        "roll_min": 21,
        "roll_max": 22
      },
      {
        "place_name": "Brigantium",
        "roll_min": 23,
        "roll_max": 24
      },
      {
        "place_name": "Burgodunum",
        "roll_min": 25,
        "roll_max": 26
      },
      {
        "place_name": "Camulodunum",
        "roll_min": 27,
        "roll_max": 28
      },
      {
        "place_name": "Clausentum",
        "roll_min": 29,
        "roll_max": 30
      },
      {
        "place_name": "Corduba",
        "roll_min": 31,
        "roll_max": 32
      },
      {
        "place_name": "Coriovallum",
        "roll_min": 33,
        "roll_max": 34
      },
      {
        "place_name": "Durucobrivis",
        "roll_min": 35,
        "roll_max": 36
      },
      {
        "place_name": "Eboracum",
        "roll_min": 37,
        "roll_max": 38
      },
      {
        "place_name": "Emona",
        "roll_min": 39,
        "roll_max": 40
      },
      {
        "place_name": "Florentia",
        "roll_min": 41,
        "roll_max": 42
      },
      {
        "place_name": "Lactodurum",
        "roll_min": 43,
        "roll_max": 44
      },
      {
        "place_name": "Lentia",
        "roll_min": 45,
        "roll_max": 46
      },
      {
        "place_name": "Lindum",
        "roll_min": 47,
        "roll_max": 48
      },
      {
        "place_name": "Londinium",
        "roll_min": 49,
        "roll_max": 50
      },
      {
        "place_name": "Lucus",
        "roll_min": 51,
        "roll_max": 52
      },
      {
        "place_name": "Lugdunum",
        "roll_min": 53,
        "roll_max": 54
      },
      {
        "place_name": "Mediolanum",
        "roll_min": 55,
        "roll_max": 56
      },
      {
        "place_name": "Novaesium",
        "roll_min": 57,
        "roll_max": 58
      },
      {
        "place_name": "Patavium",
        "roll_min": 59,
        "roll_max": 60
      },
      {
        "place_name": "Pistoria",
        "roll_min": 61,
        "roll_max": 62
      },
      {
        "place_name": "Pompeii",
        "roll_min": 63,
        "roll_max": 64
      },
      {
        "place_name": "Raurica",
        "roll_min": 65,
        "roll_max": 66
      },
      {
        "place_name": "Rigomagus",
        "roll_min": 67,
        "roll_max": 68
      },
      {
        "place_name": "Roma",
        "roll_min": 69,
        "roll_max": 70
      },
      {
        "place_name": "Salernum",
        "roll_min": 71,
        "roll_max": 72
      },
      {
        "place_name": "Salona",
        "roll_min": 73,
        "roll_max": 74
      },
      {
        "place_name": "Segovia",
        "roll_min": 75,
        "roll_max": 76
      },
      {
        "place_name": "Sirmium",
        "roll_min": 77,
        "roll_max": 78
      },
      {
        "place_name": "Spalatum",
        "roll_min": 79,
        "roll_max": 80
      },
      {
        "place_name": "Tarraco",
        "roll_min": 81,
        "roll_max": 82
      },
      {
        "place_name": "Treverorum",
        "roll_min": 83,
        "roll_max": 84
      },
      {
        "place_name": "Verulamium",
        "roll_min": 85,
        "roll_max": 86
      },
      {
        "place_name": "Vesontio",
        "roll_min": 87,
        "roll_max": 88
      },
      {
        "place_name": "Vetera",
        "roll_min": 89,
        "roll_max": 90
      },
      {
        "place_name": "Vindelicorum",
        "roll_min": 91,
        "roll_max": 92
      },
      {
        "place_name": "Vindobona",
        "roll_min": 93,
        "roll_max": 94
      },
      {
        "place_name": "Vinovia",
        "roll_min": 95,
        "roll_max": 96
      },
      {
        "place_name": "Viroconium",
        "roll_min": 97,
        "roll_max": 98
      },
      {
        "place_name": "Volubilis",
        "roll_min": 99,
        "roll_max": 100
      }
    ]
  },
  "nigerian": {
    "names": [
      {
        "name_male": "Adesegun",
        "name_female": "Abike",
        "surname": "Adegboye",
        "roll_min": 1,
        "roll_max": 4
      },
      {
        "name_male": "Akintola",
        "name_female": "Adesuwa",
        "surname": "Adeniyi",
        "roll_min": 5,
        "roll_max": 8
      },
      {
        "name_male": "Amabere",
        "name_female": "Adunola",
        "surname": "Adeyeku",
        "roll_min": 9,
        "roll_max": 12
      },
      {
        "name_male": "Arikawe",
        "name_female": "Anguli",
        "surname": "Adunola",
        "roll_min": 13,
        "roll_max": 16
      },
      {
        "name_male": "Asagwara",
        "name_female": "Arewa",
        "surname": "Agbaje",
        "roll_min": 17,
        "roll_max": 20
      },
      {
        "name_male": "Chidubem",
        "name_female": "Asari",
        "surname": "Akpan",
        "roll_min": 21,
        "roll_max": 24
      },
      {
        "name_male": "Chinedu",
        "name_female": "Bisola",
        "surname": "Akpehi",
        "roll_min": 25,
        "roll_max": 28
      },
      {
        "name_male": "Chiwetei",
        "name_female": "Chioma",
        "surname": "Aliki",
        "roll_min": 29,
        "roll_max": 32
      },
      {
        "name_male": "Damilola",
        "name_female": "Eduwa",
        "surname": "Asuni",
        "roll_min": 33,
        "roll_max": 36
      },
      {
        "name_male": "Esangbedo",
        "name_female": "Emilohi",
        "surname": "Babangida",
        "roll_min": 37,
        "roll_max": 40
      },
      {
        "name_male": "Ezenwoye",
        "name_female": "Fehintola",
        "surname": "Ekim",
        "roll_min": 41,
        "roll_max": 44
      },
      {
        "name_male": "Folarin",
        "name_female": "Folasade",
        "surname": "Ezeiruaku",
        "roll_min": 45,
        "roll_max": 48
      },
      {
        "name_male": "Genechi",
        "name_female": "Mahparah",
        "surname": "Fabiola",
        "roll_min": 49,
        "roll_max": 52
      },
      {
        "name_male": "Idowu",
        "name_female": "Minika",
        "surname": "Fasola",
        "roll_min": 53,
        "roll_max": 56
      },
      {
        "name_male": "Kelechi",
        "name_female": "Nkolika",
        "surname": "Nwokolo",
        "roll_min": 57,
        "roll_max": 60
      },
      {
        "name_male": "Ketanndu",
        "name_female": "Nkoyo",
        "surname": "Nzeocha",
        "roll_min": 61,
        "roll_max": 64
      },
      {
        "name_male": "Melubari",
        "name_female": "Nuanae",
        "surname": "Ojo",
        "roll_min": 65,
        "roll_max": 68
      },
      {
        "name_male": "Nkanta",
        "name_female": "Obioma",
        "surname": "Okonkwo",
        "roll_min": 69,
        "roll_max": 72
      },
      {
        "name_male": "Obafemi",
        "name_female": "Olafemi",
        "surname": "Okoye",
        "roll_min": 73,
        "roll_max": 76
      },
      {
        "name_male": "Olatunde",
        "name_female": "Shanumi",
        "surname": "Olaniyan",
        "roll_min": 77,
        "roll_max": 80
      },
      {
        "name_male": "Olumide",
        "name_female": "Sominabo",
        "surname": "Olawale",
        "roll_min": 81,
        "roll_max": 84
      },
      {
        "name_male": "Tombari",
        "name_female": "Suliat",
        "surname": "Olumese",
        "roll_min": 85,
        "roll_max": 88
      },
      {
        "name_male": "Udofia",
        "name_female": "Tariere",
        "surname": "Onajobi",
        "roll_min": 89,
        "roll_max": 92
      },
      {
        "name_male": "Uyoata",
        "name_female": "Temedire",
        "surname": "Soyinka",
        "roll_min": 93,
        "roll_max": 96
      },
      {
        "name_male": "Uzochi",
        "name_female": "Yemisi",
        "surname": "Yamusa",
        "roll_min": 97,
        "roll_max": 100
      }
    ],
    "places": [
      {
        "place_name": "Abadan",
        "roll_min": 1,
        "roll_max": 2
      },
      {
        "place_name": "Ador",
        "roll_min": 3,
        "roll_max": 4
      },
      {
        "place_name": "Agatu",
        "roll_min": 5,
        "roll_max": 6
      },
      {
        "place_name": "Akamkpa",
        "roll_min": 7,
        "roll_max": 8
      },
      {
        "place_name": "Akpabuyo",
        "roll_min": 9,
        "roll_max": 10
      },
      {
        "place_name": "Ala",
        "roll_min": 11,
        "roll_max": 12
      },
      {
        "place_name": "Askira",
        "roll_min": 13,
        "roll_max": 14
      },
      {
        "place_name": "Bakassi",
        "roll_min": 15,
        "roll_max": 16
      },
      {
        "place_name": "Bama",
        "roll_min": 17,
        "roll_max": 18
      },
      {
        "place_name": "Bayo",
        "roll_min": 19,
        "roll_max": 20
      },
      {
        "place_name": "Bekwara",
        "roll_min": 21,
        "roll_max": 22
      },
      {
        "place_name": "Biase",
        "roll_min": 23,
        "roll_max": 24
      },
      {
        "place_name": "Boki",
        "roll_min": 25,
        "roll_max": 26
      },
      {
        "place_name": "Buruku",
        "roll_min": 27,
        "roll_max": 28
      },
      {
        "place_name": "Calabar",
        "roll_min": 29,
        "roll_max": 30
      },
      {
        "place_name": "Chibok",
        "roll_min": 31,
        "roll_max": 32
      },
      {
        "place_name": "Damboa",
        "roll_min": 33,
        "roll_max": 34
      },
      {
        "place_name": "Dikwa",
        "roll_min": 35,
        "roll_max": 36
      },
      {
        "place_name": "Etung",
        "roll_min": 37,
        "roll_max": 38
      },
      {
        "place_name": "Gboko",
        "roll_min": 39,
        "roll_max": 40
      },
      {
        "place_name": "Gubio",
        "roll_min": 41,
        "roll_max": 42
      },
      {
        "place_name": "Guzamala",
        "roll_min": 43,
        "roll_max": 44
      },
      {
        "place_name": "Gwoza",
        "roll_min": 45,
        "roll_max": 46
      },
      {
        "place_name": "Hawul",
        "roll_min": 47,
        "roll_max": 48
      },
      {
        "place_name": "Ikom",
        "roll_min": 49,
        "roll_max": 50
      },
      {
        "place_name": "Jere",
        "roll_min": 51,
        "roll_max": 52
      },
      {
        "place_name": "Kalabalge",
        "roll_min": 53,
        "roll_max": 54
      },
      {
        "place_name": "Katsina",
        "roll_min": 55,
        "roll_max": 56
      },
      {
        "place_name": "Knoduga",
        "roll_min": 57,
        "roll_max": 58
      },
      {
        "place_name": "Konshishatse",
        "roll_min": 59,
        "roll_max": 60
      },
      {
        "place_name": "Kukawa",
        "roll_min": 61,
        "roll_max": 62
      },
      {
        "place_name": "Kwande",
        "roll_min": 63,
        "roll_max": 64
      },
      {
        "place_name": "Kwayakusar",
        "roll_min": 65,
        "roll_max": 66
      },
      {
        "place_name": "Logo",
        "roll_min": 67,
        "roll_max": 68
      },
      {
        "place_name": "Mafa",
        "roll_min": 69,
        "roll_max": 70
      },
      {
        "place_name": "Makurdi",
        "roll_min": 71,
        "roll_max": 72
      },
      {
        "place_name": "Nganzai",
        "roll_min": 73,
        "roll_max": 74
      },
      {
        "place_name": "Obanliku",
        "roll_min": 75,
        "roll_max": 76
      },
      {
        "place_name": "Obi",
        "roll_min": 77,
        "roll_max": 78
      },
      {
        "place_name": "Obubra",
        "roll_min": 79,
        "roll_max": 80
      },
      {
        "place_name": "Obudu",
        "roll_min": 81,
        "roll_max": 82
      },
      {
        "place_name": "Odukpani",
        "roll_min": 83,
        "roll_max": 84
      },
      {
        "place_name": "Ogbadibo",
        "roll_min": 85,
        "roll_max": 86
      },
      {
        "place_name": "Ohimini",
        "roll_min": 87,
        "roll_max": 88
      },
      {
        "place_name": "Okpokwu",
        "roll_min": 89,
        "roll_max": 90
      },
      {
        "place_name": "Otukpo",
        "roll_min": 91,
        "roll_max": 92
      },
      {
        "place_name": "Shani",
        "roll_min": 93,
        "roll_max": 94
      },
      {
        "place_name": "Ugep",
        "roll_min": 95,
        "roll_max": 96
      },
      {
        "place_name": "Vandeikya",
        "roll_min": 97,
        "roll_max": 98
      },
      {
        "place_name": "Yala",
        "roll_min": 99,
        "roll_max": 100
      }
    ]
  },
  "russian": {
    "names": [
      {
        "name_male": "Aleksandr",
        "name_female": "Aleksandra",
        "surname": "Abelev",
        "roll_min": 1,
        "roll_max": 4
      },
      {
        "name_male": "Andrei",
        "name_female": "Anastasia",
        "surname": "Bobrikov",
        "roll_min": 5,
        "roll_max": 8
      },
      {
        "name_male": "Arkady",
        "name_female": "Anja",
        "surname": "Chemerkin",
        "roll_min": 9,
        "roll_max": 12
      },
      {
        "name_male": "Boris",
        "name_female": "Catarina",
        "surname": "Gogunov",
        "roll_min": 13,
        "roll_max": 16
      },
      {
        "name_male": "Dmitri",
        "name_female": "Devora",
        "surname": "Gurov",
        "roll_min": 17,
        "roll_max": 20
      },
      {
        "name_male": "Dominik",
        "name_female": "Dima",
        "surname": "Iltchenko",
        "roll_min": 21,
        "roll_max": 24
      },
      {
        "name_male": "Grigory",
        "name_female": "Ekaterina",
        "surname": "Kavelin",
        "roll_min": 25,
        "roll_max": 28
      },
      {
        "name_male": "Igor",
        "name_female": "Eva",
        "surname": "Komarov",
        "roll_min": 29,
        "roll_max": 32
      },
      {
        "name_male": "Ilya",
        "name_female": "Irina",
        "surname": "Korovin",
        "roll_min": 33,
        "roll_max": 36
      },
      {
        "name_male": "Ivan",
        "name_female": "Karolina",
        "surname": "Kurnikov",
        "roll_min": 37,
        "roll_max": 40
      },
      {
        "name_male": "Kiril",
        "name_female": "Katlina",
        "surname": "Lebedev",
        "roll_min": 41,
        "roll_max": 44
      },
      {
        "name_male": "Konstantin",
        "name_female": "Kira",
        "surname": "Litvak",
        "roll_min": 45,
        "roll_max": 48
      },
      {
        "name_male": "Leonid",
        "name_female": "Ludmilla",
        "surname": "Mekhdiev",
        "roll_min": 49,
        "roll_max": 52
      },
      {
        "name_male": "Nikolai",
        "name_female": "Mara",
        "surname": "Muraviov",
        "roll_min": 53,
        "roll_max": 56
      },
      {
        "name_male": "Oleg",
        "name_female": "Nadezdha",
        "surname": "Nikitin",
        "roll_min": 57,
        "roll_max": 60
      },
      {
        "name_male": "Pavel",
        "name_female": "Nastassia",
        "surname": "Ortov",
        "roll_min": 61,
        "roll_max": 64
      },
      {
        "name_male": "Petr",
        "name_female": "Natalya",
        "surname": "Peshkov",
        "roll_min": 65,
        "roll_max": 68
      },
      {
        "name_male": "Sergei",
        "name_female": "Oksana",
        "surname": "Romasko",
        "roll_min": 69,
        "roll_max": 72
      },
      {
        "name_male": "Stepan",
        "name_female": "Olena",
        "surname": "Shvedov",
        "roll_min": 73,
        "roll_max": 76
      },
      {
        "name_male": "Valentin",
        "name_female": "Olga",
        "surname": "Sikorski",
        "roll_min": 77,
        "roll_max": 80
      },
      {
        "name_male": "Vasily",
        "name_female": "Sofia",
        "surname": "Stolypin",
        "roll_min": 81,
        "roll_max": 84
      },
      {
        "name_male": "Viktor",
        "name_female": "Svetlana",
        "surname": "Turov",
        "roll_min": 85,
        "roll_max": 88
      },
      {
        "name_male": "Yakov",
        "name_female": "Tatyana",
        "surname": "Volokh",
        "roll_min": 89,
        "roll_max": 92
      },
      {
        "name_male": "Yegor",
        "name_female": "Vilma",
        "surname": "Zaitsev",
        "roll_min": 93,
        "roll_max": 96
      },
      {
        "name_male": "Yuri",
        "name_female": "Yelena",
        "surname": "Zhukov",
        "roll_min": 97,
        "roll_max": 100
      }
    ],
    "places": [
      {
        "place_name": "Amur",
        "roll_min": 1,
        "roll_max": 2
      },
      {
        "place_name": "Arkhangelsk",
        "roll_min": 3,
        "roll_max": 4
      },
      {
        "place_name": "Astrakhan",
        "roll_min": 5,
        "roll_max": 6
      },
      {
        "place_name": "Belgorod",
        "roll_min": 7,
        "roll_max": 8
      },
      {
        "place_name": "Bryansk",
        "roll_min": 9,
        "roll_max": 10
      },
      {
        "place_name": "Chelyabinsk",
        "roll_min": 11,
        "roll_max": 12
      },
      {
        "place_name": "Chita",
        "roll_min": 13,
        "roll_max": 14
      },
      {
        "place_name": "Gorki",
        "roll_min": 15,
        "roll_max": 16
      },
      {
        "place_name": "Irkutsk",
        "roll_min": 17,
        "roll_max": 18
      },
      {
        "place_name": "Ivanovo",
        "roll_min": 19,
        "roll_max": 20
      },
      {
        "place_name": "Kaliningrad",
        "roll_min": 21,
        "roll_max": 22
      },
      {
        "place_name": "Kaluga",
        "roll_min": 23,
        "roll_max": 24
      },
      {
        "place_name": "Kamchatka",
        "roll_min": 25,
        "roll_max": 26
      },
      {
        "place_name": "Kemerovo",
        "roll_min": 27,
        "roll_max": 28
      },
      {
        "place_name": "Kirov",
        "roll_min": 29,
        "roll_max": 30
      },
      {
        "place_name": "Kostroma",
        "roll_min": 31,
        "roll_max": 32
      },
      {
        "place_name": "Kurgan",
        "roll_min": 33,
        "roll_max": 34
      },
      {
        "place_name": "Kursk",
        "roll_min": 35,
        "roll_max": 36
      },
      {
        "place_name": "Leningrad",
        "roll_min": 37,
        "roll_max": 38
      },
      {
        "place_name": "Lipetsk",
        "roll_min": 39,
        "roll_max": 40
      },
      {
        "place_name": "Magadan",
        "roll_min": 41,
        "roll_max": 42
      },
      {
        "place_name": "Moscow",
        "roll_min": 43,
        "roll_max": 44
      },
      {
        "place_name": "Murmansk",
        "roll_min": 45,
        "roll_max": 46
      },
      {
        "place_name": "Novgorod",
        "roll_min": 47,
        "roll_max": 48
      },
      {
        "place_name": "Novosibirsk",
        "roll_min": 49,
        "roll_max": 50
      },
      {
        "place_name": "Omsk",
        "roll_min": 51,
        "roll_max": 52
      },
      {
        "place_name": "Orenburg",
        "roll_min": 53,
        "roll_max": 54
      },
      {
        "place_name": "Oryol",
        "roll_min": 55,
        "roll_max": 56
      },
      {
        "place_name": "Penza",
        "roll_min": 57,
        "roll_max": 58
      },
      {
        "place_name": "Perm",
        "roll_min": 59,
        "roll_max": 60
      },
      {
        "place_name": "Pskov",
        "roll_min": 61,
        "roll_max": 62
      },
      {
        "place_name": "Rostov",
        "roll_min": 63,
        "roll_max": 64
      },
      {
        "place_name": "Ryazan",
        "roll_min": 65,
        "roll_max": 66
      },
      {
        "place_name": "Sakhalin",
        "roll_min": 67,
        "roll_max": 68
      },
      {
        "place_name": "Samara",
        "roll_min": 69,
        "roll_max": 70
      },
      {
        "place_name": "Saratov",
        "roll_min": 71,
        "roll_max": 72
      },
      {
        "place_name": "Smolensk",
        "roll_min": 73,
        "roll_max": 74
      },
      {
        "place_name": "Sverdlovsk",
        "roll_min": 75,
        "roll_max": 76
      },
      {
        "place_name": "Tambov",
        "roll_min": 77,
        "roll_max": 78
      },
      {
        "place_name": "Tomsk",
        "roll_min": 79,
        "roll_max": 80
      },
      {
        "place_name": "Tula",
        "roll_min": 81,
        "roll_max": 82
      },
      {
        "place_name": "Tver",
        "roll_min": 83,
        "roll_max": 84
      },
      {
        "place_name": "Tyumen",
        "roll_min": 85,
        "roll_max": 86
      },
      {
        "place_name": "Ulyanovsk",
        "roll_min": 87,
        "roll_max": 88
      },
      {
        "place_name": "Vladimir",
        "roll_min": 89,
        "roll_max": 90
      },
      {
        "place_name": "Volgograd",
        "roll_min": 91,
        "roll_max": 92
      },
      {
        "place_name": "Vologda",
        "roll_min": 93,
        "roll_max": 94
      },
      {
        "place_name": "Voronezh",
        "roll_min": 95,
        "roll_max": 96
      },
      {
        "place_name": "Vyborg",
        "roll_min": 97,
        "roll_max": 98
      },
      {
        "place_name": "Yaroslavl",
        "roll_min": 99,
        "roll_max": 100
      }
    ]
  },
  "spanish": {
    "names": [
      {
        "name_male": "Alejandro",
        "name_female": "Adalina",
        "surname": "Arellano",
        "roll_min": 1,
        "roll_max": 4
      },
      {
        "name_male": "Alonso",
        "name_female": "Aleta",
        "surname": "Arispana",
        "roll_min": 5,
        "roll_max": 8
      },
      {
        "name_male": "Amelio",
        "name_female": "Ana",
        "surname": "Borrego",
        "roll_min": 9,
        "roll_max": 12
      },
      {
        "name_male": "Armando",
        "name_female": "Ascencion",
        "surname": "Carderas",
        "roll_min": 13,
        "roll_max": 16
      },
      {
        "name_male": "Bernardo",
        "name_female": "Beatriz",
        "surname": "Carranzo",
        "roll_min": 17,
        "roll_max": 20
      },
      {
        "name_male": "Carlos",
        "name_female": "Carmela",
        "surname": "Cordova",
        "roll_min": 21,
        "roll_max": 24
      },
      {
        "name_male": "Cesar",
        "name_female": "Celia",
        "surname": "Enciso",
        "roll_min": 25,
        "roll_max": 28
      },
      {
        "name_male": "Diego",
        "name_female": "Dolores",
        "surname": "Espejo",
        "roll_min": 29,
        "roll_max": 32
      },
      {
        "name_male": "Emilio",
        "name_female": "Elena",
        "surname": "Gavilan",
        "roll_min": 33,
        "roll_max": 36
      },
      {
        "name_male": "Estevan",
        "name_female": "Emelina",
        "surname": "Guerra",
        "roll_min": 37,
        "roll_max": 40
      },
      {
        "name_male": "Felipe",
        "name_female": "Felipa",
        "surname": "Guillen",
        "roll_min": 41,
        "roll_max": 44
      },
      {
        "name_male": "Francisco",
        "name_female": "Inez",
        "surname": "Huertas",
        "roll_min": 45,
        "roll_max": 48
      },
      {
        "name_male": "Guillermo",
        "name_female": "Isabel",
        "surname": "Illan",
        "roll_min": 49,
        "roll_max": 52
      },
      {
        "name_male": "Javier",
        "name_female": "Jacinta",
        "surname": "Jurado",
        "roll_min": 53,
        "roll_max": 56
      },
      {
        "name_male": "Jose",
        "name_female": "Lucia",
        "surname": "Moretta",
        "roll_min": 57,
        "roll_max": 60
      },
      {
        "name_male": "Juan",
        "name_female": "Lupe",
        "surname": "Motolinia",
        "roll_min": 61,
        "roll_max": 64
      },
      {
        "name_male": "Julio",
        "name_female": "Maria",
        "surname": "Pancorbo",
        "roll_min": 65,
        "roll_max": 68
      },
      {
        "name_male": "Luis",
        "name_female": "Marta",
        "surname": "Paredes",
        "roll_min": 69,
        "roll_max": 72
      },
      {
        "name_male": "Pedro",
        "name_female": "Nina",
        "surname": "Quesada",
        "roll_min": 73,
        "roll_max": 76
      },
      {
        "name_male": "Raul",
        "name_female": "Paloma",
        "surname": "Roma",
        "roll_min": 77,
        "roll_max": 80
      },
      {
        "name_male": "Ricardo",
        "name_female": "Rafaela",
        "surname": "Rubiera",
        "roll_min": 81,
        "roll_max": 84
      },
      {
        "name_male": "Salvador",
        "name_female": "Soledad",
        "surname": "Santoro",
        "roll_min": 85,
        "roll_max": 88
      },
      {
        "name_male": "Santiago",
        "name_female": "Teresa",
        "surname": "Torrillas",
        "roll_min": 89,
        "roll_max": 92
      },
      {
        "name_male": "Valeriano",
        "name_female": "Valencia",
        "surname": "Vera",
        "roll_min": 93,
        "roll_max": 96
      },
      {
        "name_male": "Vicente",
        "name_female": "Zenaida",
        "surname": "Vivero",
        "roll_min": 97,
        "roll_max": 100
      }
    ],
    "places": [
      {
        "place_name": "Aguascebas",
        "roll_min": 1,
        "roll_max": 2
      },
      {
        "place_name": "Alcazar",
        "roll_min": 3,
        "roll_max": 4
      },
      {
        "place_name": "Barranquete",
        "roll_min": 5,
        "roll_max": 6
      },
      {
        "place_name": "Bravatas",
        "roll_min": 7,
        "roll_max": 8
      },
      {
        "place_name": "Cabezudos",
        "roll_min": 9,
        "roll_max": 10
      },
      {
        "place_name": "Calderon",
        "roll_min": 11,
        "roll_max": 12
      },
      {
        "place_name": "Cantera",
        "roll_min": 13,
        "roll_max": 14
      },
      {
        "place_name": "Castillo",
        "roll_min": 15,
        "roll_max": 16
      },
      {
        "place_name": "Delgadas",
        "roll_min": 17,
        "roll_max": 18
      },
      {
        "place_name": "Donablanca",
        "roll_min": 19,
        "roll_max": 20
      },
      {
        "place_name": "Encinetas",
        "roll_min": 21,
        "roll_max": 22
      },
      {
        "place_name": "Estrella",
        "roll_min": 23,
        "roll_max": 24
      },
      {
        "place_name": "Faustino",
        "roll_min": 25,
        "roll_max": 26
      },
      {
        "place_name": "Fuentebravia",
        "roll_min": 27,
        "roll_max": 28
      },
      {
        "place_name": "Gafarillos",
        "roll_min": 29,
        "roll_max": 30
      },
      {
        "place_name": "Gironda",
        "roll_min": 31,
        "roll_max": 32
      },
      {
        "place_name": "Higueros",
        "roll_min": 33,
        "roll_max": 34
      },
      {
        "place_name": "Huelago",
        "roll_min": 35,
        "roll_max": 36
      },
      {
        "place_name": "Humilladero",
        "roll_min": 37,
        "roll_max": 38
      },
      {
        "place_name": "Illora",
        "roll_min": 39,
        "roll_max": 40
      },
      {
        "place_name": "Isabela",
        "roll_min": 41,
        "roll_max": 42
      },
      {
        "place_name": "Izbor",
        "roll_min": 43,
        "roll_max": 44
      },
      {
        "place_name": "Jandilla",
        "roll_min": 45,
        "roll_max": 46
      },
      {
        "place_name": "Jinetes",
        "roll_min": 47,
        "roll_max": 48
      },
      {
        "place_name": "Limones",
        "roll_min": 49,
        "roll_max": 50
      },
      {
        "place_name": "Loreto",
        "roll_min": 51,
        "roll_max": 52
      },
      {
        "place_name": "Lujar",
        "roll_min": 53,
        "roll_max": 54
      },
      {
        "place_name": "Marbela",
        "roll_min": 55,
        "roll_max": 56
      },
      {
        "place_name": "Matagorda",
        "roll_min": 57,
        "roll_max": 58
      },
      {
        "place_name": "Nacimiento",
        "roll_min": 59,
        "roll_max": 60
      },
      {
        "place_name": "Niguelas",
        "roll_min": 61,
        "roll_max": 62
      },
      {
        "place_name": "Ogijares",
        "roll_min": 63,
        "roll_max": 64
      },
      {
        "place_name": "Ortegicar",
        "roll_min": 65,
        "roll_max": 66
      },
      {
        "place_name": "Pampanico",
        "roll_min": 67,
        "roll_max": 68
      },
      {
        "place_name": "Pelado",
        "roll_min": 69,
        "roll_max": 70
      },
      {
        "place_name": "Quesada",
        "roll_min": 71,
        "roll_max": 72
      },
      {
        "place_name": "Quintera",
        "roll_min": 73,
        "roll_max": 74
      },
      {
        "place_name": "Riguelo",
        "roll_min": 75,
        "roll_max": 76
      },
      {
        "place_name": "Ruescas",
        "roll_min": 77,
        "roll_max": 78
      },
      {
        "place_name": "Salteras",
        "roll_min": 79,
        "roll_max": 80
      },
      {
        "place_name": "Santopitar",
        "roll_min": 81,
        "roll_max": 82
      },
      {
        "place_name": "Taberno",
        "roll_min": 83,
        "roll_max": 84
      },
      {
        "place_name": "Torres",
        "roll_min": 85,
        "roll_max": 86
      },
      {
        "place_name": "Umbrete",
        "roll_min": 87,
        "roll_max": 88
      },
      {
        "place_name": "Valdecazorla",
        "roll_min": 89,
        "roll_max": 90
      },
      {
        "place_name": "Velez",
        "roll_min": 91,
        "roll_max": 92
      },
      {
        "place_name": "Vistahermosa",
        "roll_min": 93,
        "roll_max": 94
      },
      {
        "place_name": "Yeguas",
        "roll_min": 95,
        "roll_max": 96
      },
      {
        "place_name": "Zahora",
        "roll_min": 97,
        "roll_max": 98
      },
      {
        "place_name": "Zumeta",
        "roll_min": 99,
        "roll_max": 100
      }
    ]
  }
}
